{"type":"FeatureCollection","features":[{"type":"Feature","properties":{"OBJECTID":85,"COUNTY_NAM":"MACHAKOS","CONST_CODE":77,"CONSTITUEN":"KANGUNDO","COUNTY_COD":16,"county_name":"MACHAKOS","constituency_name":"KANGUNDO","constituency_code":"E8421E46-CFF0-4618-B1CB-EBE35FC0CD3B","registered_voters":39065,"source_polygon":"geojson/constituency_77.geojson"},"geometry":{"type":"Polygon","coordinates":[[[37.374633790000075,-1.265808105999952],[37.37829589800003,-1.265075683999953],[37.38348388700007,-1.268920897999976],[37.38629150400004,-1.270019530999946],[37.39007568400007,-1.268188476999967],[37.39251709000007,-1.268371581999929],[37.393493652000075,-1.270874022999976],[37.393310547000056,-1.273376464999956],[37.391906738000046,-1.275512694999975],[37.391723633000026,-1.277404784999931],[37.39508056600005,-1.281127929999968],[37.39648437500006,-1.284606933999953],[37.39910888700007,-1.288269042999957],[37.399719238000046,-1.294982909999931],[37.40570068400007,-1.299011229999962],[37.409484863000046,-1.306518554999968],[37.41149902300003,-1.311889647999976],[37.41369628900003,-1.315307616999974],[37.417297363000046,-1.318908690999933],[37.41931152300003,-1.321777343999941],[37.42047119100005,-1.325195312999938],[37.42028808600003,-1.328796386999954],[37.42132568400007,-1.333496093999941],[37.42309570300006,-1.338378905999946],[37.42407226600005,-1.345520019999981],[37.41912841800007,-1.348693847999925],[37.41687011700003,-1.351806640999939],[37.41027832000003,-1.355102538999972],[37.40850830100004,-1.361083983999947],[37.409484863000046,-1.363769530999946],[37.40789794900007,-1.365600585999971],[37.40692138700007,-1.367797851999967],[37.40429687500006,-1.370300292999957],[37.40368652300003,-1.372680663999972],[37.40692138700007,-1.375427245999958],[37.40747070300006,-1.378295897999976],[37.406311035000044,-1.380920409999931],[37.40411377000004,-1.382995604999962],[37.40570068400007,-1.386169433999953],[37.40710449200003,-1.393920897999976],[37.406311035000044,-1.398376464999956],[37.40649414100005,-1.405090331999929],[37.404907227000024,-1.403381347999925],[37.40368652300003,-1.400817870999958],[37.40209960900006,-1.399780272999976],[37.39508056600005,-1.398986815999933],[37.39007568400007,-1.401000976999967],[37.38348388700007,-1.402282714999956],[37.38171386700003,-1.403381347999925],[37.37969970700004,-1.405517577999945],[37.37707519500003,-1.409973144999981],[37.37530517600004,-1.407775878999928],[37.371276855000076,-1.409790038999972],[37.367919922000056,-1.40930175799997],[37.365295410000044,-1.410522460999971],[37.36468505900007,-1.413696288999972],[37.36248779300007,-1.414184569999975],[37.36090087900004,-1.415405272999976],[37.360107422000056,-1.421203612999932],[37.35827636700003,-1.42352294899996],[37.35711669900007,-1.427917479999962],[37.35327148400006,-1.424987792999957],[37.34747314500004,-1.424011229999962],[37.34552002000004,-1.422424315999933],[37.34210205100004,-1.416870116999974],[37.34069824200003,-1.410522460999971],[37.33947753900003,-1.407470702999945],[37.33630371100003,-1.406372069999975],[37.33392334000007,-1.402587890999939],[37.33392334000007,-1.398681640999939],[37.334716797000056,-1.395385741999974],[37.33227539100005,-1.392089843999941],[37.32952880900007,-1.389587401999961],[37.327270508000026,-1.388427733999947],[37.32611084000007,-1.386596679999968],[37.32348632800006,-1.385314940999933],[37.32067871100003,-1.386596679999968],[37.32067871100003,-1.383605956999929],[37.31872558600003,-1.381469726999967],[37.31872558600003,-1.379394530999946],[37.317321777000075,-1.379394530999946],[37.314514160000044,-1.377624511999954],[37.31610107400007,-1.376403808999953],[37.30767822300004,-1.367126464999956],[37.307922363000046,-1.36437988299997],[37.304870605000076,-1.363098144999981],[37.304870605000076,-1.360229491999974],[37.30328369100005,-1.357421874999943],[37.30133056600005,-1.357910155999946],[37.29547119100005,-1.351501464999956],[37.29412841800007,-1.344177245999958],[37.28887939500004,-1.34149169899996],[37.286071777000075,-1.341369628999928],[37.284301758000026,-1.340576171999942],[37.28289794900007,-1.339294433999953],[37.28289794900007,-1.337219237999932],[37.28051757800006,-1.33508300799997],[37.27911377000004,-1.332092284999931],[37.276306152000075,-1.329406737999932],[37.276123047000056,-1.326904296999942],[37.28051757800006,-1.325012206999929],[37.284484863000046,-1.325622558999953],[37.287719727000024,-1.323669433999953],[37.292480469000054,-1.31750488299997],[37.29449462900004,-1.313293456999929],[37.29650878900003,-1.310607909999931],[37.30328369100005,-1.306579589999956],[37.307922363000046,-1.305480956999929],[37.31030273400006,-1.30578613299997],[37.31469726600005,-1.308593749999943],[37.31689453100006,-1.306701659999931],[37.326904297000056,-1.302001952999945],[37.323730469000054,-1.300109862999932],[37.32592773400006,-1.291687011999954],[37.32647705100004,-1.287719726999967],[37.32507324200003,-1.282775878999928],[37.32788085900006,-1.281921386999954],[37.328308105000076,-1.277282714999956],[37.33087158200004,-1.277404784999931],[37.335083008000026,-1.274414062999938],[37.33691406200006,-1.274108886999954],[37.33728027300003,-1.271301269999981],[37.34472656200006,-1.273193358999947],[37.34667968700006,-1.271911620999958],[37.34832763700007,-1.26922607399996],[37.34832763700007,-1.265197753999928],[37.35150146500007,-1.261596679999968],[37.354125977000024,-1.260314940999933],[37.356079102000024,-1.257995604999962],[37.358886719000054,-1.257873534999931],[37.36328125000006,-1.258483886999954],[37.37048339800003,-1.26477050799997],[37.37432548800007,-1.265780077999978],[37.374633790000075,-1.265808105999952]]]}},{"type":"Feature","properties":{"OBJECTID":87,"COUNTY_NAM":"MACHAKOS","CONST_CODE":79,"CONSTITUEN":"KATHIANI","COUNTY_COD":16,"county_name":"MACHAKOS","constituency_name":"KATHIANI","constituency_code":"8D426742-89AD-45A4-8FE9-1FE5715F8961","registered_voters":38448,"source_polygon":"geojson/constituency_79.geojson"},"geometry":{"type":"Polygon","coordinates":[[[37.27288818400007,-1.328918456999929],[37.273498535000044,-1.330383300999927],[37.276489258000026,-1.329528808999953],[37.27911377000004,-1.332092284999931],[37.28350830100004,-1.340087890999939],[37.286071777000075,-1.341369628999928],[37.28887939500004,-1.34149169899996],[37.29168701200007,-1.34289550799997],[37.29351806600005,-1.344970702999945],[37.29547119100005,-1.351501464999956],[37.30108642600004,-1.357910155999946],[37.30371093700006,-1.358825683999953],[37.305297852000024,-1.360900878999928],[37.304870605000076,-1.363098144999981],[37.307922363000046,-1.364318847999925],[37.30731201200007,-1.367309569999975],[37.31011962900004,-1.369506835999971],[37.31390380900007,-1.374572753999928],[37.31610107400007,-1.376403808999953],[37.31469726600005,-1.377685546999942],[37.31689453100006,-1.379394530999946],[37.31890869100005,-1.379882812999938],[37.31872558600003,-1.382202147999976],[37.32067871100003,-1.383605956999929],[37.32067871100003,-1.386596679999968],[37.32348632800006,-1.385314940999933],[37.32672119100005,-1.387329101999967],[37.33227539100005,-1.392089843999941],[37.33428955100004,-1.395324706999929],[37.333496094000054,-1.400695800999927],[37.33392334000007,-1.403625487999932],[37.33630371100003,-1.406372069999975],[37.33947753900003,-1.407470702999945],[37.34069824200003,-1.410522460999971],[37.34191894500003,-1.417602538999972],[37.34387207000003,-1.41961669899996],[37.34552002000004,-1.422424315999933],[37.34747314500004,-1.424011229999962],[37.35430908200004,-1.425415038999972],[37.35687255900007,-1.427917479999962],[37.35913085900006,-1.427001952999945],[37.35931396500007,-1.430603026999961],[37.360107422000056,-1.434204101999967],[37.36132812500006,-1.435485839999956],[37.363891602000024,-1.434997558999953],[37.36572265600006,-1.435974120999958],[37.36468505900007,-1.438110351999967],[37.36450195300006,-1.443298339999956],[37.36352539100005,-1.447570800999927],[37.36212158200004,-1.450378417999957],[37.36328125000006,-1.452209472999925],[37.365295410000044,-1.45281982399996],[37.368286133000026,-1.45477294899996],[37.36749267600004,-1.458923339999956],[37.36468505900007,-1.460388183999953],[37.36608886700003,-1.462707519999981],[37.367919922000056,-1.469604491999974],[37.36950683600003,-1.472717284999931],[37.36871337900004,-1.477111815999933],[37.369323730000076,-1.480590819999975],[37.36749267600004,-1.482299804999968],[37.36450195300006,-1.482482909999931],[37.36749267600004,-1.487915038999972],[37.36853027300003,-1.495178222999925],[37.37072753900003,-1.496215819999975],[37.371276855000076,-1.499084472999925],[37.37390136700003,-1.502014159999931],[37.37750244100005,-1.504028319999975],[37.379089355000076,-1.506408690999933],[37.379089355000076,-1.50891113299997],[37.38189697300004,-1.511779784999931],[37.384094238000046,-1.515380858999947],[37.38647460900006,-1.517028808999953],[37.385498047000056,-1.519409179999968],[37.38208007800006,-1.51867675799997],[37.37969970700004,-1.518981933999953],[37.377685547000056,-1.520324706999929],[37.376281738000046,-1.522521972999925],[37.37371826200007,-1.524780272999976],[37.36950683600003,-1.529785155999946],[37.36572265600006,-1.531921386999954],[37.365112305000025,-1.534484862999932],[37.36352539100005,-1.534973144999981],[37.36132812500006,-1.533020019999981],[37.35827636700003,-1.541015624999943],[37.35528564500004,-1.541992187999938],[37.35388183600003,-1.546203612999932],[37.350891113000046,-1.547729491999974],[37.349670410000044,-1.541809081999929],[37.34991455100004,-1.539428710999971],[37.352478027000075,-1.534790038999972],[37.35510253900003,-1.527526854999962],[37.35687255900007,-1.524902343999941],[37.356079102000024,-1.522399901999961],[37.35351562500006,-1.523010253999928],[37.351074219000054,-1.522521972999925],[37.34832763700007,-1.523986815999933],[37.34527587900004,-1.523498534999931],[37.34570312500006,-1.526916503999928],[37.342529297000056,-1.526000976999967],[37.34368896500007,-1.529785155999946],[37.341125488000046,-1.529296874999943],[37.33831787100007,-1.531188964999956],[37.33587646500007,-1.531005858999947],[37.33148193400007,-1.528076171999942],[37.330688477000024,-1.526123046999942],[37.332092285000044,-1.521118163999972],[37.33929443400007,-1.516906737999932],[37.33770752000004,-1.513793944999975],[37.33367919900007,-1.514221190999933],[37.32952880900007,-1.512084960999971],[37.32769775400004,-1.509887694999975],[37.316284180000025,-1.501403808999953],[37.31408691400003,-1.498107909999931],[37.31048584000007,-1.498779296999942],[37.30889892600004,-1.501220702999945],[37.30712890600006,-1.502807616999974],[37.30389404300007,-1.504028319999975],[37.300292969000054,-1.501586913999972],[37.300109863000046,-1.499511718999941],[37.29290771500007,-1.494201659999931],[37.292480469000054,-1.484924315999933],[37.29351806600005,-1.479309081999929],[37.29187011700003,-1.476623534999931],[37.29150390600006,-1.473815917999957],[37.292114258000026,-1.470275878999928],[37.28930664100005,-1.467224120999958],[37.28668212900004,-1.46008300799997],[37.28289794900007,-1.452209472999925],[37.28088378900003,-1.452392577999945],[37.28070068400007,-1.450195312999938],[37.27972412100007,-1.448120116999974],[37.281127930000025,-1.446716308999953],[37.28088378900003,-1.442810058999953],[37.27911377000004,-1.438903808999953],[37.276672363000046,-1.435729979999962],[37.27532959000007,-1.432128905999946],[37.274719238000046,-1.427612304999968],[37.27508544900007,-1.423095702999945],[37.27111816400003,-1.416687011999954],[37.27429199200003,-1.409973144999981],[37.276306152000075,-1.398925780999946],[37.27770996100003,-1.397216796999942],[37.28009033200004,-1.395690917999957],[37.27893066400003,-1.392822265999939],[37.26812744100005,-1.380920409999931],[37.265686035000044,-1.380920409999931],[37.257690430000025,-1.383605956999929],[37.25329589800003,-1.38391113299997],[37.24230957000003,-1.387573241999974],[37.23931884800004,-1.389282226999967],[37.23748779300007,-1.391601562999938],[37.23431396500007,-1.398010253999928],[37.232299805000025,-1.400695800999927],[37.22052002000004,-1.401184081999929],[37.218078613000046,-1.302917479999962],[37.219482422000056,-1.299621581999929],[37.22290039100005,-1.297790526999961],[37.22888183600003,-1.292785644999981],[37.24707031200006,-1.294677733999947],[37.25250244100005,-1.297607421999942],[37.254089355000076,-1.299194335999971],[37.25567627000004,-1.304626464999956],[37.257873535000044,-1.307128905999946],[37.258728027000075,-1.310791015999939],[37.26092529300007,-1.31359863299997],[37.265502930000025,-1.315917968999941],[37.26751709000007,-1.318969726999967],[37.269714355000076,-1.320983886999954],[37.27087402300003,-1.323181151999961],[37.27366114800003,-1.325767141999961],[37.27288818400007,-1.328918456999929]]]}},{"type":"Feature","properties":{"OBJECTID":81,"COUNTY_NAM":"MACHAKOS","CONST_CODE":81,"CONSTITUEN":"MACHAKOS TOWN","COUNTY_COD":16,"county_name":"MACHAKOS","constituency_name":"MACHAKOS TOWN","constituency_code":"3169E91F-6C96-4288-A525-3ADC4D973288","registered_voters":79816,"source_polygon":"geojson/constituency_81.geojson"},"geometry":{"type":"Polygon","coordinates":[[[37.22052002000004,-1.401184081999929],[37.22052002000004,-1.402221679999968],[37.232299805000025,-1.400695800999927],[37.23608398400006,-1.394897460999971],[37.23767089800003,-1.390991210999971],[37.24188232400007,-1.388000487999932],[37.25329589800003,-1.38391113299997],[37.25952148400006,-1.384582519999981],[37.26171875000006,-1.382324218999941],[37.266723633000026,-1.380798339999956],[37.278076172000056,-1.392089843999941],[37.279907227000024,-1.394714354999962],[37.276306152000075,-1.398925780999946],[37.27429199200003,-1.409973144999981],[37.27288818400007,-1.412780761999954],[37.27008056600005,-1.415893554999968],[37.27508544900007,-1.423095702999945],[37.274719238000046,-1.427612304999968],[37.276489258000026,-1.437011718999941],[37.27911377000004,-1.438903808999953],[37.28088378900003,-1.442810058999953],[37.27893066400003,-1.447509765999939],[37.28070068400007,-1.450195312999938],[37.28088378900003,-1.452392577999945],[37.28289794900007,-1.452209472999925],[37.284301758000026,-1.454895019999981],[37.29071044900007,-1.470520019999981],[37.29187011700003,-1.476623534999931],[37.29309082000003,-1.479919433999953],[37.292480469000054,-1.484924315999933],[37.29290771500007,-1.494201659999931],[37.29632568400007,-1.496704101999967],[37.30267334000007,-1.503417968999941],[37.30450439500004,-1.504516601999967],[37.30889892600004,-1.501220702999945],[37.31048584000007,-1.498779296999942],[37.31408691400003,-1.498107909999931],[37.316284180000025,-1.501403808999953],[37.32769775400004,-1.509887694999975],[37.32952880900007,-1.512084960999971],[37.33227539100005,-1.513671874999943],[37.33648681600005,-1.513977050999927],[37.33929443400007,-1.516906737999932],[37.332092285000044,-1.521118163999972],[37.330688477000024,-1.526123046999942],[37.33148193400007,-1.528076171999942],[37.33789062500006,-1.532104491999974],[37.341125488000046,-1.529296874999943],[37.34368896500007,-1.529785155999946],[37.342529297000056,-1.526000976999967],[37.34570312500006,-1.526916503999928],[37.34570312500006,-1.523620604999962],[37.34869384800004,-1.524108886999954],[37.351074219000054,-1.522521972999925],[37.35351562500006,-1.523010253999928],[37.356079102000024,-1.522399901999961],[37.35687255900007,-1.524902343999941],[37.35510253900003,-1.527526854999962],[37.352478027000075,-1.534790038999972],[37.34991455100004,-1.539428710999971],[37.35009765600006,-1.549621581999929],[37.34790039100005,-1.551025390999939],[37.34552002000004,-1.551574706999929],[37.342712402000075,-1.552978515999939],[37.34008789100005,-1.554626464999956],[37.334899902000075,-1.559875487999932],[37.33789062500006,-1.564392089999956],[37.341125488000046,-1.568115233999947],[37.34228515600006,-1.571594237999932],[37.34387207000003,-1.573303222999925],[37.347717285000044,-1.576110839999956],[37.349670410000044,-1.578918456999929],[37.35290527300003,-1.580993651999961],[37.36352539100005,-1.589599608999947],[37.36627197300004,-1.597106933999953],[37.368286133000026,-1.600524901999961],[37.37030029300007,-1.602600097999925],[37.371276855000076,-1.606689452999945],[37.374877930000025,-1.61437988299997],[37.376098633000026,-1.620117187999938],[37.382690430000025,-1.631408690999933],[37.382324219000054,-1.634826659999931],[37.38488769500003,-1.639099120999958],[37.38671875000006,-1.645202636999954],[37.38952636700003,-1.646789550999927],[37.39312744100005,-1.652587890999939],[37.39508056600005,-1.658569335999971],[37.39672851600005,-1.660583495999958],[37.40008544900007,-1.662170409999931],[37.40087890600006,-1.664672851999967],[37.40087890600006,-1.667175292999957],[37.401489258000026,-1.669494628999928],[37.40332031200006,-1.672485351999967],[37.40588378900003,-1.675170897999976],[37.40509033200004,-1.677307128999928],[37.40667724600007,-1.679321288999972],[37.407714844000054,-1.682312011999954],[37.409484863000046,-1.685424804999968],[37.412292480000076,-1.687988280999946],[37.408081055000025,-1.689819335999971],[37.40472412100007,-1.690673827999945],[37.40032959000007,-1.693176269999981],[37.393676758000026,-1.695495604999962],[37.39111328100006,-1.697204589999956],[37.38751220700004,-1.698425292999957],[37.38507080100004,-1.701293944999975],[37.38250732400007,-1.701477050999927],[37.379089355000076,-1.702514647999976],[37.374877930000025,-1.704528808999953],[37.37152099600007,-1.704895019999981],[37.365112305000025,-1.703979491999974],[37.35931396500007,-1.705993651999961],[37.35668945300006,-1.706420897999976],[37.35430908200004,-1.70477294899996],[37.34649658200004,-1.704101562999938],[37.344482422000056,-1.701721190999933],[37.34210205100004,-1.700012206999929],[37.338073730000076,-1.701171874999943],[37.335083008000026,-1.701171874999943],[37.331909180000025,-1.698974608999947],[37.32910156200006,-1.699829101999967],[37.32067871100003,-1.700927733999947],[37.31231689500004,-1.700012206999929],[37.30249023400006,-1.705505370999958],[37.28808593700006,-1.711486815999933],[37.28930664100005,-1.698425292999957],[37.27893066400003,-1.687377929999968],[37.26507568400007,-1.680175780999946],[37.272094727000024,-1.668090819999975],[37.262329102000024,-1.651794433999953],[37.25811767600004,-1.645507812999938],[37.25628662100007,-1.64367675799997],[37.25531005900007,-1.64062],[37.25250244100005,-1.634826659999931],[37.25207519500003,-1.605224608999947],[37.251281738000046,-1.591918944999975],[37.24450683600003,-1.591918944999975],[37.23687744100005,-1.588623046999942],[37.23187255900007,-1.588928222999925],[37.229125977000024,-1.591918944999975],[37.175109863000046,-1.61688232399996],[37.19171142600004,-1.65148925799997],[37.19451904300007,-1.681884765999939],[37.19671630900007,-1.719909667999957],[37.19390869100005,-1.721191405999946],[37.176513672000056,-1.75360107399996],[37.16571044900007,-1.760925292999957],[37.15527343700006,-1.777404784999931],[37.15228271500007,-1.77508544899996],[37.15551757800006,-1.768371581999929],[37.158081055000025,-1.76477050799997],[37.15649414100005,-1.762084960999971],[37.151123047000056,-1.760681151999961],[37.14868164100005,-1.758422851999967],[37.14770507800006,-1.754272460999971],[37.14752197300004,-1.75],[37.14892578100006,-1.743896483999947],[37.14892578100006,-1.740295409999931],[37.14770507800006,-1.737792968999941],[37.14550781200006,-1.736083983999947],[37.14288330100004,-1.735412597999925],[37.140686035000044,-1.735778808999953],[37.134277344000054,-1.73992919899996],[37.132324219000054,-1.742492675999927],[37.12890625000006,-1.74188232399996],[37.12048339800003,-1.737609862999932],[37.11712646500007,-1.736572265999939],[37.11328125000006,-1.734619140999939],[37.111511230000076,-1.732910155999946],[37.08789062500006,-1.701416015999939],[37.08447265600006,-1.698486327999945],[37.07611084000007,-1.685729979999962],[37.02911377000004,-1.622924804999968],[37.13970947300004,-1.561584472999925],[37.16571044900007,-1.574829101999967],[37.176696777000075,-1.552978515999939],[37.17150878900003,-1.531799315999933],[37.16992187500006,-1.531005858999947],[37.16687011700003,-1.530822753999928],[37.15393066400003,-1.531494140999939],[37.143493652000075,-1.531188964999956],[37.14227294900007,-1.507385253999928],[37.14550781200006,-1.504821776999961],[37.148315430000025,-1.503295897999976],[37.15411377000004,-1.504272460999971],[37.159118652000075,-1.504211425999927],[37.16052246100003,-1.501708983999947],[37.16290283200004,-1.49969482399996],[37.16052246100003,-1.497314452999945],[37.16168212900004,-1.494812011999954],[37.16772460900006,-1.488891601999967],[37.16949462900004,-1.483093261999954],[37.17291259800004,-1.482421874999943],[37.17633056600005,-1.482910155999946],[37.17932128900003,-1.480895995999958],[37.182922363000046,-1.481628417999957],[37.18511962900004,-1.47961425799997],[37.187683105000076,-1.47821044899996],[37.18829345700004,-1.474975585999971],[37.184509277000075,-1.469604491999974],[37.184509277000075,-1.464477538999972],[37.18048095700004,-1.465087890999939],[37.17968750000006,-1.461181640999939],[37.18011474600007,-1.459106444999975],[37.183471680000025,-1.456909179999968],[37.1875,-1.458190917999957],[37.18847656200006,-1.454528808999953],[37.19451904300007,-1.452209472999925],[37.19610595700004,-1.448425292999957],[37.19628906200006,-1.445678710999971],[37.190917969000054,-1.437622069999975],[37.19189453100006,-1.434509276999961],[37.194091797000056,-1.432983397999976],[37.195495605000076,-1.431213378999928],[37.18927002000004,-1.424194335999971],[37.19567871100003,-1.416687011999954],[37.19769287100007,-1.420898437999938],[37.20172119100005,-1.419494628999928],[37.19512939500004,-1.407714843999941],[37.191284180000025,-1.405517577999945],[37.1875,-1.399902343999941],[37.18890380900007,-1.39758300799997],[37.19470214800003,-1.391296386999954],[37.19708252000004,-1.385986327999945],[37.19812011700003,-1.383300780999946],[37.19812011700003,-1.379089354999962],[37.197326660000044,-1.375488280999946],[37.198730469000054,-1.372497558999953],[37.206909180000025,-1.361389159999931],[37.20910644500003,-1.359313964999956],[37.21929931600005,-1.359191894999981],[37.22052002000004,-1.395812987999932],[37.22052002000004,-1.401184081999929]]]}},{"type":"Feature","properties":{"OBJECTID":84,"COUNTY_NAM":"MACHAKOS","CONST_CODE":75,"CONSTITUEN":"MASINGA","COUNTY_COD":16,"county_name":"MACHAKOS","constituency_name":"MASINGA","constituency_code":"3634DC14-AE41-4ACB-BF3E-C268B5DBD51E","registered_voters":44857,"source_polygon":"geojson/constituency_75.geojson"},"geometry":{"type":"Polygon","coordinates":[[[37.74450683600003,-0.779907226999967],[37.74688720700004,-0.785888671999942],[37.74768066400003,-0.792724608999947],[37.74969482400007,-0.799682616999974],[37.75012207000003,-0.803222655999946],[37.75427246100003,-0.813415526999961],[37.75689697300004,-0.82141113299997],[37.75811767600004,-0.823608397999976],[37.76928710900006,-0.823608397999976],[37.77130127000004,-0.820983886999954],[37.774719238000046,-0.822204589999956],[37.77789306600005,-0.824218749999943],[37.78210449200003,-0.824523925999927],[37.784118652000075,-0.822814940999933],[37.78747558600003,-0.822814940999933],[37.792114258000026,-0.818481444999975],[37.79632568400007,-0.816528319999975],[37.79852294900007,-0.812011718999941],[37.80267334000007,-0.807312011999954],[37.80352783200004,-0.804626464999956],[37.80548095700004,-0.802001952999944],[37.80688476600005,-0.803588866999974],[37.807922363000046,-0.807128905999946],[37.80767822300004,-0.811279296999942],[37.80908203100006,-0.814270019999981],[37.81207275400004,-0.812622069999975],[37.81408691400003,-0.808227538999972],[37.81829834000007,-0.804870604999962],[37.82189941400003,-0.804992675999927],[37.82507324200003,-0.805908202999944],[37.828125,-0.80578613299997],[37.83148193400007,-0.812011718999941],[37.83447265600006,-0.813476562999938],[37.83691406200006,-0.812072753999928],[37.83831787100007,-0.810119628999928],[37.84490966800007,-0.811584472999925],[37.84509277300003,-0.814819335999971],[37.84411621100003,-0.818725585999971],[37.84729003900003,-0.820983886999954],[37.84692382800006,-0.829101562999938],[37.84869384800004,-0.832275390999939],[37.846313477000024,-0.833618163999972],[37.84350585900006,-0.834228515999939],[37.841308594000054,-0.835998534999931],[37.84191894500003,-0.840576171999942],[37.84411621100003,-0.841796874999943],[37.84027099600007,-0.844726562999938],[37.83691406200006,-0.846069335999971],[37.83770752000004,-0.848999022999976],[37.83569335900006,-0.851806640999939],[37.83172607400007,-0.853698729999962],[37.83270263700007,-0.856323241999974],[37.82989502000004,-0.857604979999962],[37.82910156200006,-0.860717772999976],[37.83129882800006,-0.864013671999942],[37.82647705100004,-0.86688232399996],[37.82647705100004,-0.872314452999944],[37.82171630900007,-0.880126952999944],[37.820922852000024,-0.883117675999927],[37.82312011700003,-0.89062],[37.82250976600005,-0.894470214999956],[37.81848144500003,-0.896423339999956],[37.81951904300007,-0.900024413999972],[37.82391357400007,-0.90008544899996],[37.827270508000026,-0.901123046999942],[37.83032226600005,-0.903625487999932],[37.833312988000046,-0.906799315999933],[37.83367919900007,-0.911071776999961],[37.83831787100007,-0.910095214999956],[37.838073730000076,-0.919921874999943],[37.84210205100004,-0.920288085999971],[37.84149169900007,-0.92352294899996],[37.84411621100003,-0.924377440999933],[37.843078613000046,-0.927795409999931],[37.84692382800006,-0.928710937999938],[37.84930419900007,-0.931091308999953],[37.850891113000046,-0.933715819999975],[37.84991455100004,-0.935424804999968],[37.852478027000075,-0.937927245999958],[37.850524902000075,-0.94110107399996],[37.84747314500004,-0.942016601999967],[37.84729003900003,-0.947509765999939],[37.84991455100004,-0.948486327999944],[37.851074219000054,-0.950622558999953],[37.849670410000044,-0.953369140999939],[37.85211181600005,-0.95672607399996],[37.85351562500006,-0.957885741999974],[37.853698730000076,-0.961303710999971],[37.85131835900006,-0.96008300799997],[37.84509277300003,-0.964111327999944],[37.84808349600007,-0.965209960999971],[37.853698730000076,-0.966369628999928],[37.85711669900007,-0.965698241999974],[37.85827636700003,-0.966918944999975],[37.860290527000075,-0.968017577999944],[37.86328125000006,-0.968872069999975],[37.86309814500004,-0.972473144999981],[37.86572265600006,-0.972778319999975],[37.86767578100006,-0.973571776999961],[37.86688232400007,-0.977600097999925],[37.86328125000006,-0.978881835999971],[37.86492919900007,-0.981506347999925],[37.861511230000076,-0.982604979999962],[37.85827636700003,-0.985290526999961],[37.85467529300007,-0.986511229999962],[37.85168457000003,-0.989013671999942],[37.84991455100004,-0.992675780999946],[37.84710693400007,-0.994079589999956],[37.846313477000024,-0.996582030999946],[37.84729003900003,-0.999572753999928],[37.850708008000026,-1.004028319999975],[37.849670410000044,-1.012207030999946],[37.84887695300006,-1.025024413999972],[37.84692382800006,-1.028869628999928],[37.84832763700007,-1.041198729999962],[37.84649658200004,-1.044311522999976],[37.84552002000004,-1.047607421999942],[37.84411621100003,-1.050415038999972],[37.841308594000054,-1.05187988299997],[37.836120605000076,-1.058715819999975],[37.83410644500003,-1.063415526999961],[37.83007812500006,-1.068908690999933],[37.82769775400004,-1.070678710999971],[37.822326660000044,-1.070129394999981],[37.820922852000024,-1.071289062999938],[37.820495605000076,-1.074096679999968],[37.81829834000007,-1.080505370999958],[37.81610107400007,-1.083007812999938],[37.81469726600005,-1.085571288999972],[37.8125,-1.087524413999972],[37.808471680000025,-1.092407226999967],[37.80712890600006,-1.101501464999956],[37.80432128900003,-1.109008788999972],[37.80249023400006,-1.111389159999931],[37.801879883000026,-1.116394042999957],[37.798889160000044,-1.118713378999928],[37.795104980000076,-1.123474120999958],[37.79150390600006,-1.123229979999962],[37.76727294900007,-1.105285644999981],[37.76269531200006,-1.099914550999927],[37.760681152000075,-1.100402831999929],[37.733703613000046,-1.080078124999943],[37.692687988000046,-1.081909179999968],[37.66650390600006,-1.083618163999972],[37.60351562500006,-1.086486815999933],[37.59490966800007,-1.086425780999946],[37.57250976600005,-1.083007812999938],[37.56152343700006,-1.080383300999927],[37.54772949200003,-1.079406737999932],[37.526489258000026,-1.076416015999939],[37.52008056600005,-1.06610107399996],[37.51989746100003,-1.060302733999947],[37.52111816400003,-1.058593749999943],[37.52032470700004,-1.056213378999928],[37.51312255900007,-1.043273925999927],[37.51367187500006,-1.04071044899996],[37.54290771500007,-0.993713378999928],[37.504089355000076,-0.989807128999928],[37.49969482400007,-0.988586425999927],[37.48712158200004,-0.986511229999962],[37.47930908200004,-0.986694335999971],[37.47290039100005,-0.986083983999947],[37.47027587900004,-0.997070312999938],[37.45251464800003,-1.003112792999957],[37.45007324200003,-1.006225585999971],[37.42047119100005,-1.032775878999928],[37.406127930000025,-1.012023925999927],[37.36212158200004,-0.987609862999932],[37.33831787100007,-0.985229491999974],[37.33288574200003,-0.976379394999981],[37.34613037100007,-0.976623534999931],[37.363891602000024,-0.965698241999974],[37.36590576200007,-0.962829589999956],[37.36132812500006,-0.957397460999971],[37.35668945300006,-0.950622558999953],[37.35528564500004,-0.946594237999932],[37.34747314500004,-0.956481933999953],[37.342712402000075,-0.961608886999954],[37.33947753900003,-0.959899901999961],[37.336120605000076,-0.958923339999956],[37.333496094000054,-0.955017089999956],[37.330688477000024,-0.953002929999968],[37.32867431600005,-0.950378417999957],[37.32989502000004,-0.947570800999927],[37.328125,-0.945495604999962],[37.31671142600004,-0.946899413999972],[37.31488037100007,-0.940795897999976],[37.31811523400006,-0.938171386999954],[37.322875977000024,-0.935485839999956],[37.32489013700007,-0.932922362999932],[37.324096680000025,-0.929870604999962],[37.319091797000056,-0.925292968999941],[37.31829834000007,-0.922302245999958],[37.31829834000007,-0.918518065999933],[37.299926758000026,-0.906127929999968],[37.28228759800004,-0.896789550999927],[37.26928710900006,-0.882995604999962],[37.258728027000075,-0.870971679999968],[37.25567627000004,-0.866821288999972],[37.25250244100005,-0.861206054999968],[37.241699219000054,-0.861511229999962],[37.24090576200007,-0.858703612999932],[37.23608398400006,-0.856018065999933],[37.225891113000046,-0.852172851999967],[37.22851562500006,-0.846008300999927],[37.23327636700003,-0.837097167999957],[37.24969482400007,-0.837280272999976],[37.25848388700007,-0.836914062999938],[37.260681152000075,-0.81610107399996],[37.26208496100003,-0.812011718999941],[37.26147460900006,-0.809082030999946],[37.26269531200006,-0.79602050799997],[37.26251220700004,-0.792419433999953],[37.26348877000004,-0.789794921999942],[37.26727294900007,-0.786071776999961],[37.27252197300004,-0.784729003999928],[37.27587890600006,-0.783020019999924],[37.27832031200006,-0.782409667999957],[37.28070068400007,-0.782775878999928],[37.28350830100004,-0.781677245999958],[37.287719727000024,-0.782775878999928],[37.28930664100005,-0.785522460999971],[37.29132080100004,-0.787597655999946],[37.29412841800007,-0.791687011999954],[37.29968261700003,-0.794311522999976],[37.30133056600005,-0.797180175999927],[37.30468750000006,-0.798828124999943],[37.306518555000025,-0.801513671999942],[37.30548095700004,-0.805297851999967],[37.30590820300006,-0.811828612999932],[37.31011962900004,-0.813903808999953],[37.31329345700004,-0.817993163999972],[37.313110352000024,-0.820983886999954],[37.31567382800006,-0.823974608999947],[37.31671142600004,-0.82812],[37.31829834000007,-0.831481933999953],[37.320922852000024,-0.834411620999958],[37.325500488000046,-0.83367919899996],[37.32592773400006,-0.835876464999956],[37.324096680000025,-0.838073729999962],[37.325500488000046,-0.840270995999958],[37.32751464800003,-0.841674804999968],[37.33428955100004,-0.842529296999942],[37.33789062500006,-0.844177245999958],[37.34069824200003,-0.84149169899996],[37.34387207000003,-0.840576171999942],[37.34649658200004,-0.842407226999967],[37.349670410000044,-0.841003417999957],[37.35150146500007,-0.843505858999947],[37.35491943400007,-0.842102050999927],[37.35809326200007,-0.841918944999975],[37.36248779300007,-0.843017577999944],[37.36907959000007,-0.846374511999954],[37.37670898400006,-0.848876952999944],[37.37652587900004,-0.852172851999967],[37.37811279300007,-0.854797362999932],[37.38067627000004,-0.855529784999931],[37.38250732400007,-0.853271483999947],[37.38592529300007,-0.85070800799997],[37.38830566400003,-0.854187011999954],[37.393493652000075,-0.852905272999976],[37.39807128900003,-0.854492187999938],[37.40509033200004,-0.849426269999981],[37.411071777000075,-0.848205565999933],[37.41333007800006,-0.848999022999976],[37.414123535000044,-0.852416991999974],[37.41149902300003,-0.85711669899996],[37.414123535000044,-0.859802245999958],[37.41949462900004,-0.860290526999961],[37.42590332000003,-0.864196776999961],[37.42907714800003,-0.863708495999958],[37.43109130900007,-0.861572265999939],[37.43371582000003,-0.86047363299997],[37.43847656200006,-0.861328124999943],[37.442321777000075,-0.86102294899996],[37.44451904300007,-0.863586425999927],[37.44512939500004,-0.866027831999929],[37.447326660000044,-0.868408202999944],[37.45532226600005,-0.869873046999942],[37.45892334000007,-0.869201659999931],[37.46051025400004,-0.871826171999942],[37.46270752000004,-0.873596190999933],[37.464904785000044,-0.872070312999938],[37.46710205100004,-0.871582030999946],[37.47052002000004,-0.874389647999976],[37.47387695300006,-0.874572753999928],[37.47430419900007,-0.876586913999972],[37.472717285000044,-0.882202147999976],[37.47247314500004,-0.885498046999942],[37.47509765600006,-0.886718749999943],[37.47808837900004,-0.893188476999967],[37.48168945300006,-0.892883300999927],[37.48669433600003,-0.897705077999944],[37.49072265600006,-0.898925780999946],[37.49548339800003,-0.902221679999968],[37.50170898400006,-0.899291991999974],[37.50512695300006,-0.899414062999938],[37.50830078100006,-0.901123046999942],[37.51251220700004,-0.901184081999929],[37.515686035000044,-0.902770995999958],[37.51647949200003,-0.908996581999929],[37.51470947300004,-0.911376952999944],[37.51770019500003,-0.915283202999944],[37.52087402300003,-0.91571044899996],[37.52691650400004,-0.913879394999981],[37.534118652000075,-0.912597655999946],[37.53491210900006,-0.904602050999927],[37.53369140600006,-0.901611327999944],[37.53332519500003,-0.898010253999928],[37.53247070300006,-0.895690917999957],[37.53509521500007,-0.892700194999975],[37.53747558600003,-0.888977050999927],[37.54309082000003,-0.886718749999943],[37.54449462900004,-0.883728026999961],[37.54669189500004,-0.882324218999941],[37.548706055000025,-0.883789062999938],[37.551879883000026,-0.882995604999962],[37.55767822300004,-0.87609863299997],[37.56091308600003,-0.875305175999927],[37.56231689500004,-0.877929687999938],[37.564514160000044,-0.880310058999953],[37.57507324200003,-0.876770019999981],[37.58270263700007,-0.877990722999925],[37.58673095700004,-0.878112792999957],[37.58929443400007,-0.872375487999932],[37.591308594000054,-0.869995116999974],[37.59008789100005,-0.867980956999929],[37.58728027300003,-0.865722655999946],[37.59088134800004,-0.861816405999946],[37.59509277300003,-0.860717772999976],[37.60150146500007,-0.861877440999933],[37.60589599600007,-0.854919433999953],[37.60968017600004,-0.855285644999981],[37.61572265600006,-0.85461425799997],[37.61712646500007,-0.851989745999958],[37.61950683600003,-0.851318358999947],[37.62371826200007,-0.851806640999939],[37.62689209000007,-0.850891112999932],[37.62890625000006,-0.839416503999928],[37.632873535000044,-0.838378905999946],[37.63488769500003,-0.838500976999967],[37.63629150400004,-0.839904784999931],[37.63769531200006,-0.842529296999942],[37.640502930000025,-0.845214843999941],[37.64611816400003,-0.842529296999942],[37.64892578100006,-0.844299315999933],[37.65209960900006,-0.844421386999954],[37.65551757800006,-0.846496581999929],[37.659484863000046,-0.847595214999956],[37.66131591800007,-0.846496581999929],[37.664672852000024,-0.845703124999943],[37.66571044900007,-0.842529296999942],[37.67108154300007,-0.835693358999947],[37.67108154300007,-0.83172607399996],[37.67327880900007,-0.826904296999942],[37.67547607400007,-0.825012206999929],[37.67852783200004,-0.824218749999943],[37.68090820300006,-0.822692870999958],[37.68109130900007,-0.820373534999931],[37.679870605000076,-0.817321776999961],[37.68231201200007,-0.807922362999932],[37.68127441400003,-0.801513671999942],[37.68127441400003,-0.796508788999972],[37.684509277000075,-0.794189452999944],[37.688110352000024,-0.794372558999953],[37.69012451200007,-0.796203612999932],[37.692504883000026,-0.79461669899996],[37.69329834000007,-0.791320800999927],[37.69750976600005,-0.789611815999933],[37.698730469000054,-0.78820800799997],[37.69891357400007,-0.784423827999944],[37.70727539100005,-0.781188964999956],[37.71087646500007,-0.780517577999944],[37.716308594000054,-0.779785155999946],[37.72149658200004,-0.779724120999958],[37.724670410000044,-0.780212401999961],[37.730529785000044,-0.775329589999956],[37.73327636700003,-0.774597167999957],[37.73931884800004,-0.77648925799997],[37.744007457000066,-0.779407847999948],[37.74450683600003,-0.779907226999967]]]}},{"type":"Feature","properties":{"OBJECTID":82,"COUNTY_NAM":"MACHAKOS","CONST_CODE":78,"CONSTITUEN":"MATUNGULU","COUNTY_COD":16,"county_name":"MACHAKOS","constituency_name":"MATUNGULU","constituency_code":"BA3B03EF-1464-4D48-8249-10FCFAD4A69B","registered_voters":48016,"source_polygon":"geojson/constituency_78.geojson"},"geometry":{"type":"Polygon","coordinates":[[[37.30315681400003,-1.076963648999936],[37.305297852000024,-1.07922363299997],[37.309875488000046,-1.081970214999956],[37.31231689500004,-1.084228515999939],[37.31951904300007,-1.093383788999972],[37.32250976600005,-1.094787597999925],[37.326904297000056,-1.098693847999925],[37.33111572300004,-1.104187011999954],[37.333496094000054,-1.105285644999981],[37.33911132800006,-1.111083983999947],[37.342712402000075,-1.116516112999932],[37.34350585900006,-1.118774413999972],[37.35131835900006,-1.127319335999971],[37.35632324200003,-1.13000488299997],[37.35827636700003,-1.129577636999954],[37.36108398400006,-1.128173827999945],[37.36267089800003,-1.129577636999954],[37.365295410000044,-1.135375976999967],[37.36407470700004,-1.13977050799997],[37.366699219000054,-1.143798827999945],[37.37347412100007,-1.150878905999946],[37.377685547000056,-1.156372069999975],[37.37988281200006,-1.157470702999945],[37.37872314500004,-1.159423827999945],[37.372924805000025,-1.165405272999976],[37.36950683600003,-1.171691894999981],[37.366699219000054,-1.174194335999971],[37.36328125000006,-1.175415038999972],[37.35668945300006,-1.172485351999967],[37.35028076200007,-1.172119140999939],[37.34887695300006,-1.169311522999976],[37.34667968700006,-1.168029784999931],[37.34472656200006,-1.170776366999974],[37.34472656200006,-1.173217772999976],[37.34552002000004,-1.175598144999981],[37.34509277300003,-1.177917479999962],[37.342895508000026,-1.183593749999943],[37.342895508000026,-1.187316894999981],[37.34527587900004,-1.194396972999925],[37.347717285000044,-1.197387694999975],[37.34930419900007,-1.201782226999967],[37.35131835900006,-1.203918456999929],[37.357482910000044,-1.213073729999962],[37.35827636700003,-1.216186522999976],[37.35968017600004,-1.217712401999961],[37.36108398400006,-1.220581054999968],[37.361511230000076,-1.223327636999954],[37.36309814500004,-1.224121093999941],[37.36431884800004,-1.226196288999972],[37.367919922000056,-1.236694335999971],[37.36907959000007,-1.241516112999932],[37.37048339800003,-1.243591308999953],[37.37249755900007,-1.245117187999938],[37.374511719000054,-1.247680663999972],[37.37390136700003,-1.255187987999932],[37.37408447300004,-1.25891113299997],[37.373107910000044,-1.265686034999931],[37.37048339800003,-1.26477050799997],[37.36590576200007,-1.260192870999958],[37.36328125000006,-1.258483886999954],[37.358886719000054,-1.257873534999931],[37.356079102000024,-1.257995604999962],[37.354125977000024,-1.260314940999933],[37.35150146500007,-1.261596679999968],[37.349121094000054,-1.264404296999942],[37.34832763700007,-1.26922607399996],[37.34667968700006,-1.271911620999958],[37.34472656200006,-1.273193358999947],[37.33728027300003,-1.271301269999981],[37.33709716800007,-1.273986815999933],[37.335083008000026,-1.274414062999938],[37.33087158200004,-1.277404784999931],[37.328125,-1.276977538999972],[37.32788085900006,-1.280212401999961],[37.32507324200003,-1.282409667999957],[37.32629394500003,-1.286376952999945],[37.32592773400006,-1.291687011999954],[37.323730469000054,-1.300109862999932],[37.32592773400006,-1.302001952999945],[37.32452392600004,-1.303222655999946],[37.31707763700007,-1.306701659999931],[37.307922363000046,-1.305480956999929],[37.30328369100005,-1.306579589999956],[37.29650878900003,-1.310607909999931],[37.29449462900004,-1.313293456999929],[37.292480469000054,-1.31750488299997],[37.287719727000024,-1.323669433999953],[37.284484863000046,-1.325622558999953],[37.28051757800006,-1.325012206999929],[37.276123047000056,-1.326904296999942],[37.273498535000044,-1.328796386999954],[37.27392578100006,-1.326171874999943],[37.27288818400007,-1.324584960999971],[37.27050781200006,-1.323974608999947],[37.27069091800007,-1.321777343999941],[37.26611328100006,-1.316589354999962],[37.26367187500006,-1.314880370999958],[37.26092529300007,-1.313720702999945],[37.25848388700007,-1.30969238299997],[37.254089355000076,-1.299194335999971],[37.25250244100005,-1.297607421999942],[37.24707031200006,-1.294677733999947],[37.22888183600003,-1.292785644999981],[37.22192382800006,-1.29852294899996],[37.21832275400004,-1.299804687999938],[37.218078613000046,-1.302917479999962],[37.21929931600005,-1.346679687999938],[37.16912841800007,-1.345275878999928],[37.144714355000076,-1.297912597999925],[37.129089355000076,-1.298278808999953],[37.12152099600007,-1.29071044899996],[37.10528564500004,-1.272705077999945],[37.103698730000076,-1.270202636999954],[37.10226754900003,-1.269184367999969],[37.10218448300003,-1.266422424999973],[37.10357583800004,-1.264013511999963],[37.10372120300008,-1.262892121999926],[37.102478027000075,-1.258728026999961],[37.10949707000003,-1.256713866999974],[37.10992431600005,-1.253295897999976],[37.108886719000054,-1.247314452999945],[37.10992431600005,-1.244995116999974],[37.11627197300004,-1.246093749999943],[37.119323730000076,-1.244873046999942],[37.11889648400006,-1.236999511999954],[37.12249755900007,-1.232482909999931],[37.125915527000075,-1.230773925999927],[37.13330078100006,-1.231384276999961],[37.13671875000006,-1.230102538999972],[37.13909912100007,-1.227111815999933],[37.14007568400007,-1.224609374999943],[37.141906738000046,-1.223510741999974],[37.149719238000046,-1.223388671999942],[37.151672363000046,-1.222900390999939],[37.15393066400003,-1.220092772999976],[37.15509033200004,-1.217285155999946],[37.15570068400007,-1.209899901999961],[37.15332031200006,-1.207885741999974],[37.15393066400003,-1.205810546999942],[37.15570068400007,-1.204528808999953],[37.159118652000075,-1.203308104999962],[37.156127930000025,-1.195922851999967],[37.15588378900003,-1.193176269999981],[37.15747070300006,-1.191772460999971],[37.16052246100003,-1.191406249999943],[37.165527344000054,-1.186889647999976],[37.16967773400006,-1.179870604999962],[37.17047119100005,-1.177185058999953],[37.173889160000044,-1.171691894999981],[37.18109130900007,-1.16571044899996],[37.18231201200007,-1.163574218999941],[37.18249511700003,-1.160522460999971],[37.18127441400003,-1.158081054999968],[37.18072509800004,-1.155029296999942],[37.181518555000025,-1.153015136999954],[37.18511962900004,-1.147705077999945],[37.18511962900004,-1.145507812999938],[37.18371582000003,-1.142211913999972],[37.18670654300007,-1.136291503999928],[37.18511962900004,-1.132690429999968],[37.18267822300004,-1.131713866999974],[37.18127441400003,-1.127929687999938],[37.17950439500004,-1.126770019999981],[37.17810058600003,-1.12219238299997],[37.17547607400007,-1.117492675999927],[37.175109863000046,-1.114685058999953],[37.17608642600004,-1.11242675799997],[37.17852783200004,-1.110900878999928],[37.179870605000076,-1.107971190999933],[37.18591308600003,-1.105224608999947],[37.18829345700004,-1.10321044899996],[37.18927002000004,-1.097595214999956],[37.192321777000075,-1.092590331999929],[37.19531250000006,-1.090698241999974],[37.200500488000046,-1.088684081999929],[37.20550537100007,-1.083007812999938],[37.211120605000076,-1.078186034999931],[37.213073730000076,-1.07727050799997],[37.222717285000044,-1.076721190999933],[37.224670410000044,-1.076171874999943],[37.22790527300003,-1.073974608999947],[37.233520508000026,-1.073608397999976],[37.24389648400006,-1.077880858999947],[37.24609375000006,-1.076904296999942],[37.249511719000054,-1.077087401999961],[37.260498047000056,-1.068603515999939],[37.26489257800006,-1.066711425999927],[37.27069091800007,-1.066528319999975],[37.277526855000076,-1.065307616999974],[37.281311035000044,-1.065185546999942],[37.28668212900004,-1.068725585999971],[37.29071044900007,-1.069885253999928],[37.29571533200004,-1.070495604999962],[37.298706055000025,-1.071899413999972],[37.30230712900004,-1.074890136999954],[37.30310058600003,-1.076904296999942],[37.30315681400003,-1.076963648999936]]]}},{"type":"Feature","properties":{"OBJECTID":86,"COUNTY_NAM":"MACHAKOS","CONST_CODE":80,"CONSTITUEN":"MAVOKO","COUNTY_COD":16,"county_name":"MACHAKOS","constituency_name":"MAVOKO","constituency_code":"6B0706FF-4EFF-4685-AA8B-DD8C51891C8C","registered_voters":79996,"source_polygon":"geojson/constituency_80.geojson"},"geometry":{"type":"Polygon","coordinates":[[[37.074641858000064,-1.290043199999957],[37.07606340800004,-1.287836735999974],[37.07629394500003,-1.283813476999967],[37.078125,-1.281372069999975],[37.08251953100006,-1.282409667999957],[37.08447265600006,-1.276977538999972],[37.08630371100003,-1.275390624999943],[37.09790039100005,-1.271301269999981],[37.100524902000075,-1.272705077999945],[37.10211181600005,-1.268798827999945],[37.12152099600007,-1.29071044899996],[37.129089355000076,-1.298278808999953],[37.144714355000076,-1.297912597999925],[37.16912841800007,-1.345275878999928],[37.201904297000056,-1.346008300999927],[37.21929931600005,-1.346923827999945],[37.21929931600005,-1.358886718999941],[37.20910644500003,-1.359313964999956],[37.206909180000025,-1.361389159999931],[37.198730469000054,-1.37219238299997],[37.197875977000024,-1.374023437999938],[37.197326660000044,-1.375610351999967],[37.197326660000044,-1.378112792999957],[37.19848632800006,-1.379699706999929],[37.19812011700003,-1.383300780999946],[37.19470214800003,-1.391296386999954],[37.192321777000075,-1.394104003999928],[37.19067382800006,-1.395202636999954],[37.1875,-1.399902343999941],[37.18988037100007,-1.40399169899996],[37.191284180000025,-1.405517577999945],[37.19512939500004,-1.407714843999941],[37.197875977000024,-1.413391112999932],[37.19952392600004,-1.415100097999925],[37.20147705100004,-1.41961669899996],[37.19769287100007,-1.420898437999938],[37.19567871100003,-1.416687011999954],[37.192321777000075,-1.421081542999957],[37.18927002000004,-1.424194335999971],[37.195495605000076,-1.431213378999928],[37.194091797000056,-1.432983397999976],[37.19189453100006,-1.434509276999961],[37.19049072300004,-1.436523437999938],[37.19110107400007,-1.438781737999932],[37.19348144500003,-1.440979003999928],[37.19628906200006,-1.445678710999971],[37.19610595700004,-1.448303222999925],[37.19512939500004,-1.451110839999956],[37.194091797000056,-1.452880858999947],[37.19189453100006,-1.453186034999931],[37.18969726600005,-1.454406737999932],[37.188110352000024,-1.454589843999941],[37.18890380900007,-1.457519530999946],[37.18792724600007,-1.459411620999958],[37.18707275400004,-1.457397460999971],[37.184692383000026,-1.45672607399996],[37.18267822300004,-1.457214354999962],[37.18011474600007,-1.459106444999975],[37.17968750000006,-1.461181640999939],[37.18048095700004,-1.465087890999939],[37.184875488000046,-1.464477538999972],[37.184509277000075,-1.469604491999974],[37.18548584000007,-1.471618651999961],[37.18652343700006,-1.472595214999956],[37.18688964800003,-1.474609374999943],[37.18908691400003,-1.475219726999967],[37.187683105000076,-1.47821044899996],[37.18249511700003,-1.480712890999939],[37.17871093700006,-1.480895995999958],[37.17730712900004,-1.482604979999962],[37.17547607400007,-1.483215331999929],[37.17291259800004,-1.482421874999943],[37.170104980000076,-1.482727050999927],[37.168884277000075,-1.48352050799997],[37.16851806600005,-1.486694335999971],[37.16772460900006,-1.488891601999967],[37.16168212900004,-1.494812011999954],[37.16052246100003,-1.497314452999945],[37.16290283200004,-1.49969482399996],[37.15991210900006,-1.502319335999971],[37.159118652000075,-1.504211425999927],[37.15411377000004,-1.504272460999971],[37.148315430000025,-1.503295897999976],[37.14630127000004,-1.504089354999962],[37.14227294900007,-1.507385253999928],[37.143493652000075,-1.531188964999956],[37.15393066400003,-1.531494140999939],[37.16687011700003,-1.530822753999928],[37.17047119100005,-1.531188964999956],[37.176696777000075,-1.552978515999939],[37.16571044900007,-1.574829101999967],[37.13970947300004,-1.561584472999925],[37.03527832000003,-1.619384765999939],[37.02868652300003,-1.622375487999932],[37.007324219000054,-1.593627929999968],[37.00030517600004,-1.59680175799997],[36.99090576200007,-1.584899901999961],[36.99609375000006,-1.580993651999961],[36.98413085900006,-1.563476562999938],[36.97772216800007,-1.553222655999946],[36.97509765600006,-1.552185058999953],[36.97290039100005,-1.554687499999943],[36.96728515600006,-1.553710937999938],[36.96392822300004,-1.551513671999942],[36.96209716800007,-1.549499511999954],[36.96032714800003,-1.546203612999932],[36.957092285000044,-1.541809081999929],[36.95648193400007,-1.539428710999971],[36.95672607400007,-1.535888671999942],[36.95770263700007,-1.531921386999954],[36.95892334000007,-1.529479979999962],[36.96173095700004,-1.529602050999927],[36.96289062500006,-1.526672362999932],[36.963500977000024,-1.518493651999961],[36.96331787100007,-1.512023925999927],[36.96392822300004,-1.509521483999947],[36.968078613000046,-1.506286620999958],[36.97052002000004,-1.501892089999956],[36.97369384800004,-1.499389647999976],[36.974487305000025,-1.497375487999932],[36.974121094000054,-1.495605468999941],[36.97149658200004,-1.492370604999962],[36.970886230000076,-1.490417479999962],[36.97113037100007,-1.488708495999958],[36.977478027000075,-1.475219726999967],[36.94750976600005,-1.459228515999939],[36.94989013700007,-1.455200194999975],[36.944091797000056,-1.45281982399996],[36.941284180000025,-1.452514647999976],[36.93530273400006,-1.453613280999946],[36.93048095700004,-1.456604003999928],[36.92810058600003,-1.455688476999967],[36.92327880900007,-1.45672607399996],[36.92132568400007,-1.458374022999976],[36.92047119100005,-1.460693358999947],[36.909301758000026,-1.466979979999962],[36.90332031200006,-1.471618651999961],[36.901489258000026,-1.471984862999932],[36.89807128900003,-1.474670409999931],[36.89587402300003,-1.477294921999942],[36.893310547000056,-1.478698729999962],[36.889282227000024,-1.482421874999943],[36.88830566400003,-1.483886718999941],[36.88470459000007,-1.484497069999975],[36.87829589800003,-1.475524901999961],[36.889867921000075,-1.412220513999955],[36.93127441400003,-1.430480956999929],[36.94281629200003,-1.430554070999961],[36.947512345000064,-1.433190377999949],[36.95008982300004,-1.435559652999928],[36.951600781000025,-1.435702419999927],[36.95536032900003,-1.434810122999977],[36.95665713500006,-1.435785701999976],[36.95774006900007,-1.440333654999961],[36.959142916000076,-1.441561146999959],[36.96103136500005,-1.442127680999931],[36.96208350000006,-1.436421868999958],[36.96018156300005,-1.435990223999966],[36.95935873900004,-1.434897620999948],[36.95532226600005,-1.426818847999925],[36.95288085900006,-1.424682616999974],[36.94812011700003,-1.421813964999956],[36.94689941400003,-1.419494628999928],[36.945267416000036,-1.406388561999961],[36.94275113600003,-1.403954372999976],[36.94206585100005,-1.40117040399997],[36.93852521300005,-1.399471468999934],[36.93648363500006,-1.396801712999945],[36.93160098100003,-1.396316302999935],[36.92814600400004,-1.391990442999941],[36.92669820100008,-1.391786514999978],[36.92423907700004,-1.39265785799995],[36.92276747500006,-1.392096325999944],[36.92201231100006,-1.390605360999928],[36.92108287900004,-1.384602774999962],[36.91632080100004,-1.375305175999927],[36.91387939500004,-1.371276854999962],[36.90570068400007,-1.361816405999946],[36.93389892600004,-1.336303710999971],[36.96051025400004,-1.346008300999927],[36.96577059100008,-1.351778868999929],[36.983703613000046,-1.312377929999968],[36.97387695300006,-1.287170409999931],[36.994873047000056,-1.27899169899996],[37.00207519500003,-1.298278808999953],[37.02587890600006,-1.289489745999958],[37.075681761000055,-1.300979574999928],[37.07611084000007,-1.299072265999939],[37.07250976600005,-1.29656982399996],[37.072875977000024,-1.291809081999929],[37.07420654400005,-1.290478513999972],[37.074641858000064,-1.290043199999957]]]}},{"type":"Feature","properties":{"OBJECTID":83,"COUNTY_NAM":"MACHAKOS","CONST_CODE":82,"CONSTITUEN":"MWALA","COUNTY_COD":16,"county_name":"MACHAKOS","constituency_name":"MWALA","constituency_code":"576C5038-373D-4160-A629-053DA1184637","registered_voters":60801,"source_polygon":"geojson/constituency_82.geojson"},"geometry":{"type":"Polygon","coordinates":[[[37.39111328100006,-1.16961669899996],[37.39428710900006,-1.171081542999957],[37.39727783200004,-1.169372558999953],[37.39947509800004,-1.169921874999943],[37.40051269500003,-1.17156982399996],[37.403076172000056,-1.17156982399996],[37.407714844000054,-1.168823241999974],[37.409301758000026,-1.170471190999933],[37.40789794900007,-1.173217772999976],[37.40869140600006,-1.176269530999946],[37.411071777000075,-1.178771972999925],[37.41131591800007,-1.182006835999971],[37.41369628900003,-1.183715819999975],[37.41809082000003,-1.183776854999962],[37.420104980000076,-1.187622069999975],[37.41912841800007,-1.191894530999946],[37.42108154300007,-1.193969726999967],[37.42572021500007,-1.194396972999925],[37.42767334000007,-1.197692870999958],[37.43072509800004,-1.198120116999974],[37.43090820300006,-1.200683593999941],[37.429870605000076,-1.205810546999942],[37.43127441400003,-1.207824706999929],[37.43408203100006,-1.208007812999938],[37.43652343700006,-1.209411620999958],[37.43792724600007,-1.211914062999938],[37.44390869100005,-1.218994140999939],[37.44628906200006,-1.220825194999975],[37.44848632800006,-1.219482421999942],[37.44989013700007,-1.217407226999967],[37.45172119100005,-1.219116210999971],[37.452270508000026,-1.222290038999972],[37.45629882800006,-1.223693847999925],[37.45751953100006,-1.226196288999972],[37.46228027300003,-1.231018065999933],[37.467712402000075,-1.230224608999947],[37.47229003900003,-1.231872558999953],[37.474487305000025,-1.231201171999942],[37.47808837900004,-1.235717772999976],[37.47967529300007,-1.238525390999939],[37.48089599600007,-1.242309569999975],[37.48431396500007,-1.244995116999974],[37.485473633000026,-1.247375487999932],[37.485473633000026,-1.250671386999954],[37.48950195300006,-1.251586913999972],[37.50012207000003,-1.252380370999958],[37.50250244100005,-1.254028319999975],[37.50531005900007,-1.259887694999975],[37.50708007800006,-1.26141357399996],[37.512329102000024,-1.26281738299997],[37.51452636700003,-1.265197753999928],[37.52270507800006,-1.276672362999932],[37.52410888700007,-1.280212401999961],[37.52587890600006,-1.281372069999975],[37.52770996100003,-1.284118651999961],[37.53051757800006,-1.289794921999942],[37.532714844000054,-1.292724608999947],[37.53710937500006,-1.301025390999939],[37.541076660000044,-1.305969237999932],[37.54772949200003,-1.304626464999956],[37.55212402300003,-1.304687499999943],[37.555297852000024,-1.305297851999967],[37.55767822300004,-1.307128905999946],[37.55871582000003,-1.309326171999942],[37.55908203100006,-1.312805175999927],[37.56329345700004,-1.315795897999976],[37.57147216800007,-1.315612792999957],[37.57391357400007,-1.31750488299997],[37.57672119100005,-1.317810058999953],[37.57971191400003,-1.31750488299997],[37.581909180000025,-1.319580077999945],[37.58587646500007,-1.326721190999933],[37.58868408200004,-1.329895019999981],[37.59570312500006,-1.331115722999925],[37.59710693400007,-1.332702636999954],[37.59667968700006,-1.335205077999945],[37.60192871100003,-1.338806151999961],[37.60491943400007,-1.342529296999942],[37.60632324200003,-1.347106933999953],[37.608520508000026,-1.350097655999946],[37.610107422000056,-1.356079101999967],[37.611511230000076,-1.358398437999938],[37.61407470700004,-1.359680175999927],[37.615112305000025,-1.362487792999957],[37.61547851600005,-1.371398925999927],[37.61853027300003,-1.373718261999954],[37.624511719000054,-1.376220702999945],[37.62188720700004,-1.381408690999933],[37.62670898400006,-1.38250732399996],[37.627685547000056,-1.384826659999931],[37.62792968700006,-1.387573241999974],[37.62707519500003,-1.391113280999946],[37.627685547000056,-1.394287108999947],[37.63012695300006,-1.397888183999953],[37.63348388700007,-1.398620604999962],[37.63671875000006,-1.400329589999956],[37.63891601600005,-1.402770995999958],[37.64312744100005,-1.406127929999968],[37.64489746100003,-1.412902831999929],[37.644714355000076,-1.416015624999943],[37.64550781200006,-1.418884276999961],[37.64532470700004,-1.422790526999961],[37.64611816400003,-1.426391601999967],[37.64788818400007,-1.429504394999981],[37.64892578100006,-1.432617187999938],[37.65209960900006,-1.437011718999941],[37.65209960900006,-1.445617675999927],[37.65270996100003,-1.447875976999967],[37.65850830100004,-1.450988769999981],[37.66650390600006,-1.452087401999961],[37.66772460900006,-1.454406737999932],[37.66967773400006,-1.455505370999958],[37.67169189500004,-1.455810546999942],[37.67309570300006,-1.457580565999933],[37.67352294900007,-1.460327147999976],[37.67272949200003,-1.463012694999975],[37.67431640600006,-1.46398925799997],[37.67828369100005,-1.46398925799997],[37.68127441400003,-1.465026854999962],[37.688110352000024,-1.471984862999932],[37.68927002000004,-1.473815917999957],[37.68969726600005,-1.476013183999953],[37.69610595700004,-1.48797607399996],[37.69470214800003,-1.497070312999938],[37.700683594000054,-1.507019042999957],[37.70288085900006,-1.507995604999962],[37.70550537100007,-1.506774901999961],[37.711120605000076,-1.508300780999946],[37.713500977000024,-1.509521483999947],[37.72052002000004,-1.52258300799997],[37.722717285000044,-1.523498534999931],[37.72332763700007,-1.525573729999962],[37.72949218700006,-1.536071776999961],[37.730529785000044,-1.538818358999947],[37.73608398400006,-1.546081542999957],[37.741699219000054,-1.552124022999976],[37.74572753900003,-1.553527831999929],[37.74969482400007,-1.553894042999957],[37.751098633000026,-1.560424804999968],[37.75250244100005,-1.563171386999954],[37.75292968700006,-1.566284179999968],[37.75012207000003,-1.568298339999956],[37.746704102000024,-1.568725585999971],[37.74353027300003,-1.570495604999962],[37.73748779300007,-1.574218749999943],[37.735290527000075,-1.577087401999961],[37.73309326200007,-1.580993651999961],[37.73590087900004,-1.583984374999943],[37.73608398400006,-1.586791991999974],[37.735107422000056,-1.589111327999945],[37.735290527000075,-1.591613769999981],[37.73272705100004,-1.594177245999958],[37.72967529300007,-1.595581054999968],[37.72827148400006,-1.596984862999932],[37.728698730000076,-1.600402831999929],[37.72808837900004,-1.602722167999957],[37.725524902000075,-1.603820800999927],[37.72149658200004,-1.606994628999928],[37.71911621100003,-1.608215331999929],[37.71691894500003,-1.607727050999927],[37.71148681600005,-1.604187011999954],[37.71051025400004,-1.601318358999947],[37.708129883000026,-1.596923827999945],[37.70629882800006,-1.594604491999974],[37.70471191400003,-1.589416503999928],[37.703125,-1.586425780999946],[37.70092773400006,-1.583984374999943],[37.695922852000024,-1.586608886999954],[37.69390869100005,-1.585205077999945],[37.68908691400003,-1.587097167999957],[37.684692383000026,-1.585205077999945],[37.684875488000046,-1.58898925799997],[37.688110352000024,-1.594299315999933],[37.68927002000004,-1.596923827999945],[37.68988037100007,-1.599975585999971],[37.68829345700004,-1.603820800999927],[37.68688964800003,-1.610229491999974],[37.68829345700004,-1.616516112999932],[37.68707275400004,-1.618774413999972],[37.68389892600004,-1.619812011999954],[37.68090820300006,-1.626220702999945],[37.674926758000026,-1.630187987999932],[37.67291259800004,-1.632080077999945],[37.67150878900003,-1.634582519999981],[37.67071533200004,-1.637390136999954],[37.668701172000056,-1.63977050799997],[37.66772460900006,-1.642028808999953],[37.66528320300006,-1.643310546999942],[37.66168212900004,-1.644104003999928],[37.65789794900007,-1.63977050799997],[37.65649414100005,-1.636169433999953],[37.65527343700006,-1.630798339999956],[37.651489258000026,-1.629516601999967],[37.64947509800004,-1.628112792999957],[37.649902344000054,-1.624084472999925],[37.644714355000076,-1.614807128999928],[37.64312744100005,-1.608581542999957],[37.64288330100004,-1.598083495999958],[37.64227294900007,-1.595214843999941],[37.64288330100004,-1.592224120999958],[37.64093017600004,-1.591186522999976],[37.640502930000025,-1.58898925799997],[37.640686035000044,-1.586608886999954],[37.63488769500003,-1.589416503999928],[37.63189697300004,-1.589294433999953],[37.62347412100007,-1.580688476999967],[37.619873047000056,-1.573669433999953],[37.619323730000076,-1.570983886999954],[37.61968994100005,-1.569091796999942],[37.61853027300003,-1.566528319999975],[37.61431884800004,-1.564208983999947],[37.61071777300003,-1.565795897999976],[37.60791015600006,-1.565673827999945],[37.60711669900007,-1.561889647999976],[37.60192871100003,-1.561523437999938],[37.59930419900007,-1.560424804999968],[37.600524902000075,-1.558227538999972],[37.59851074200003,-1.555175780999946],[37.59747314500004,-1.55187988299997],[37.59490966800007,-1.553588866999974],[37.592712402000075,-1.55578613299997],[37.58868408200004,-1.558105468999941],[37.584716797000056,-1.559509276999961],[37.582092285000044,-1.561523437999938],[37.58007812500006,-1.564025878999928],[37.57788085900006,-1.565307616999974],[37.57452392600004,-1.564514159999931],[37.57592773400006,-1.55828857399996],[37.572875977000024,-1.557678222999925],[37.567871094000054,-1.557678222999925],[37.56231689500004,-1.55969238299997],[37.55828857400007,-1.557678222999925],[37.55731201200007,-1.554687499999943],[37.56091308600003,-1.554016112999932],[37.56292724600007,-1.552124022999976],[37.56030273400006,-1.55047607399996],[37.551696777000075,-1.548400878999928],[37.549926758000026,-1.545715331999929],[37.55133056600005,-1.544006347999925],[37.55468750000006,-1.542175292999957],[37.55432128900003,-1.539672851999967],[37.55108642600004,-1.537414550999927],[37.54791259800004,-1.536682128999928],[37.545104980000076,-1.537902831999929],[37.54309082000003,-1.540283202999945],[37.534118652000075,-1.539672851999967],[37.53070068400007,-1.538085937999938],[37.527526855000076,-1.537902831999929],[37.52532959000007,-1.536682128999928],[37.52288818400007,-1.537719726999967],[37.52050781200006,-1.536193847999925],[37.52069091800007,-1.533020019999981],[37.518493652000075,-1.532104491999974],[37.51770019500003,-1.527587890999939],[37.51611328100006,-1.525817870999958],[37.51287841800007,-1.524780272999976],[37.50750732400007,-1.527709960999971],[37.50531005900007,-1.527526854999962],[37.50347900400004,-1.526611327999945],[37.50152587900004,-1.524414062999938],[37.49847412100007,-1.524169921999942],[37.49353027300003,-1.519592284999931],[37.48669433600003,-1.515502929999968],[37.48272705100004,-1.516906737999932],[37.47930908200004,-1.516296386999954],[37.475891113000046,-1.516784667999957],[37.474487305000025,-1.519714354999962],[37.47308349600007,-1.517822265999939],[37.47070312500006,-1.516296386999954],[37.46929931600005,-1.518188476999967],[37.466674805000025,-1.51727294899996],[37.46051025400004,-1.518920897999976],[37.458312988000046,-1.520385741999974],[37.45507812500006,-1.521606444999975],[37.45288085900006,-1.523498534999931],[37.45007324200003,-1.527282714999956],[37.444274902000075,-1.530578612999932],[37.44110107400007,-1.53039550799997],[37.43872070300006,-1.528381347999925],[37.43688964800003,-1.531372069999975],[37.434509277000075,-1.531494140999939],[37.43212890600006,-1.530700683999953],[37.42468261700003,-1.530700683999953],[37.41931152300003,-1.529174804999968],[37.41510009800004,-1.527282714999956],[37.412719727000024,-1.525207519999981],[37.41027832000003,-1.525207519999981],[37.40087890600006,-1.520874022999976],[37.398315430000025,-1.520324706999929],[37.39489746100003,-1.521118163999972],[37.38848877000004,-1.520202636999954],[37.38647460900006,-1.51727294899996],[37.384094238000046,-1.515380858999947],[37.38189697300004,-1.511779784999931],[37.379089355000076,-1.50891113299997],[37.379089355000076,-1.506408690999933],[37.37750244100005,-1.504028319999975],[37.37390136700003,-1.502014159999931],[37.371276855000076,-1.499084472999925],[37.37109375000006,-1.496520995999958],[37.368286133000026,-1.491577147999976],[37.36749267600004,-1.487915038999972],[37.36547851600005,-1.484313964999956],[37.369323730000076,-1.480590819999975],[37.36871337900004,-1.477111815999933],[37.369323730000076,-1.472595214999956],[37.36767578100006,-1.469421386999954],[37.36608886700003,-1.462707519999981],[37.36468505900007,-1.460388183999953],[37.367919922000056,-1.459228515999939],[37.368286133000026,-1.453186034999931],[37.36328125000006,-1.452209472999925],[37.36212158200004,-1.450378417999957],[37.36352539100005,-1.447570800999927],[37.365295410000044,-1.436523437999938],[37.36407470700004,-1.435119628999928],[37.36132812500006,-1.434082030999946],[37.35931396500007,-1.430603026999961],[37.358520508000026,-1.42687988299997],[37.35827636700003,-1.42352294899996],[37.360107422000056,-1.421203612999932],[37.36090087900004,-1.415405272999976],[37.36248779300007,-1.414184569999975],[37.36468505900007,-1.413696288999972],[37.365295410000044,-1.410522460999971],[37.367919922000056,-1.40930175799997],[37.371276855000076,-1.409729003999928],[37.37347412100007,-1.408874511999954],[37.37548828100006,-1.408691405999946],[37.37750244100005,-1.410705565999933],[37.379516602000024,-1.405578612999932],[37.38153076200007,-1.403503417999957],[37.38348388700007,-1.402282714999956],[37.39007568400007,-1.401000976999967],[37.39508056600005,-1.398986815999933],[37.40032959000007,-1.399291991999974],[37.40289306600005,-1.400390624999943],[37.40667724600007,-1.405517577999945],[37.406311035000044,-1.398376464999956],[37.40710449200003,-1.393920897999976],[37.40570068400007,-1.387207030999946],[37.40649414100005,-1.385498046999942],[37.40411377000004,-1.382995604999962],[37.406311035000044,-1.380920409999931],[37.40747070300006,-1.378295897999976],[37.40692138700007,-1.375427245999958],[37.40368652300003,-1.372680663999972],[37.404479980000076,-1.370178222999925],[37.40692138700007,-1.367797851999967],[37.409301758000026,-1.363281249999943],[37.40887451200007,-1.359619140999939],[37.41009521500007,-1.355590819999975],[37.414123535000044,-1.353027343999941],[37.417114258000026,-1.352111815999933],[37.41912841800007,-1.348693847999925],[37.42407226600005,-1.345520019999981],[37.42407226600005,-1.342590331999929],[37.42132568400007,-1.333496093999941],[37.42028808600003,-1.328796386999954],[37.42047119100005,-1.325195312999938],[37.41931152300003,-1.321777343999941],[37.41168212900004,-1.312316894999981],[37.409484863000046,-1.306518554999968],[37.40570068400007,-1.299011229999962],[37.40032959000007,-1.295410155999946],[37.39910888700007,-1.288269042999957],[37.39648437500006,-1.284606933999953],[37.39508056600005,-1.281127929999968],[37.391906738000046,-1.276123046999942],[37.393310547000056,-1.273376464999956],[37.393493652000075,-1.270874022999976],[37.39251709000007,-1.268493651999961],[37.39007568400007,-1.268188476999967],[37.38629150400004,-1.270019530999946],[37.38348388700007,-1.268920897999976],[37.37829589800003,-1.265075683999953],[37.374328613000046,-1.265869140999939],[37.37390136700003,-1.255187987999932],[37.37469482400007,-1.25],[37.37408447300004,-1.24719238299997],[37.37249755900007,-1.245117187999938],[37.37048339800003,-1.243591308999953],[37.36907959000007,-1.241516112999932],[37.36853027300003,-1.237915038999972],[37.36730957000003,-1.235595702999945],[37.36431884800004,-1.226196288999972],[37.35809326200007,-1.214172362999932],[37.35131835900006,-1.203918456999929],[37.34930419900007,-1.201782226999967],[37.347717285000044,-1.197387694999975],[37.34527587900004,-1.194396972999925],[37.342895508000026,-1.187316894999981],[37.342895508000026,-1.183593749999943],[37.345886230000076,-1.176025390999939],[37.34472656200006,-1.173217772999976],[37.34472656200006,-1.170776366999974],[37.34667968700006,-1.168029784999931],[37.34887695300006,-1.169311522999976],[37.35028076200007,-1.172119140999939],[37.35668945300006,-1.172485351999967],[37.36328125000006,-1.175415038999972],[37.366699219000054,-1.174194335999971],[37.36950683600003,-1.171691894999981],[37.372924805000025,-1.165405272999976],[37.37872314500004,-1.159423827999945],[37.38067627000004,-1.158874511999954],[37.382873535000044,-1.160888671999942],[37.38592529300007,-1.161499022999976],[37.386901855000076,-1.163696288999972],[37.38708496100003,-1.165588378999928],[37.38830566400003,-1.167602538999972],[37.39111328100006,-1.16961669899996]]]}},{"type":"Feature","properties":{"OBJECTID":80,"COUNTY_NAM":"MACHAKOS","CONST_CODE":76,"CONSTITUEN":"YATTA","COUNTY_COD":16,"county_name":"MACHAKOS","constituency_name":"YATTA","constituency_code":"A079983D-EC07-45A6-8A11-7DF7042B24AD","registered_voters":55963,"source_polygon":"geojson/constituency_76.geojson"},"geometry":{"type":"Polygon","coordinates":[[[37.59747314500004,-1.123229979999962],[37.59790039100005,-1.130920409999931],[37.600708008000026,-1.131469726999967],[37.60290527300003,-1.134094237999932],[37.604125977000024,-1.136718749999943],[37.60388183600003,-1.139587401999961],[37.60571289100005,-1.142028808999953],[37.60913085900006,-1.140686034999931],[37.61730957000003,-1.142883300999927],[37.61950683600003,-1.14367675799997],[37.62469482400007,-1.148010253999928],[37.62652587900004,-1.15148925799997],[37.63507080100004,-1.162597655999946],[37.63812255900007,-1.168029784999931],[37.643493652000075,-1.180419921999942],[37.64447021500007,-1.183715819999975],[37.64727783200004,-1.188720702999945],[37.64947509800004,-1.195800780999946],[37.65429687500006,-1.200073241999974],[37.65588378900003,-1.203369140999939],[37.65728759800004,-1.208190917999957],[37.66009521500007,-1.209472655999946],[37.66192627000004,-1.211608886999954],[37.66351318400007,-1.214904784999931],[37.66650390600006,-1.21649169899996],[37.665893555000025,-1.218627929999968],[37.66772460900006,-1.221496581999929],[37.674926758000026,-1.228698729999962],[37.67590332000003,-1.231384276999961],[37.67730712900004,-1.232421874999943],[37.684875488000046,-1.234619140999939],[37.687683105000076,-1.238403319999975],[37.68872070300006,-1.240417479999962],[37.68872070300006,-1.244201659999931],[37.69012451200007,-1.247497558999953],[37.691284180000025,-1.249206542999957],[37.69311523400006,-1.249023437999938],[37.69451904300007,-1.257202147999976],[37.697326660000044,-1.265686034999931],[37.697326660000044,-1.268371581999929],[37.698730469000054,-1.270385741999974],[37.701904297000056,-1.271728515999939],[37.703125,-1.27508544899996],[37.70629882800006,-1.279479979999962],[37.70947265600006,-1.288879394999981],[37.713500977000024,-1.29071044899996],[37.71392822300004,-1.298828124999943],[37.71691894500003,-1.299987792999957],[37.717895508000026,-1.303710937999938],[37.71990966800007,-1.306823729999962],[37.72210693400007,-1.312072753999928],[37.724487305000025,-1.313781737999932],[37.724121094000054,-1.316894530999946],[37.725524902000075,-1.319519042999957],[37.724670410000044,-1.322021483999947],[37.72692871100003,-1.325073241999974],[37.732482910000044,-1.336425780999946],[37.73211669900007,-1.340026854999962],[37.73767089800003,-1.342285155999946],[37.73950195300006,-1.345214843999941],[37.740112305000025,-1.347595214999956],[37.744873047000056,-1.350402831999929],[37.74572753900003,-1.35321044899996],[37.744873047000056,-1.356018065999933],[37.74829101600005,-1.356872558999953],[37.76531982400007,-1.354797362999932],[37.76593017600004,-1.356994628999928],[37.76770019500003,-1.356689452999945],[37.77087402300003,-1.35906982399996],[37.77551269500003,-1.360229491999974],[37.77728271500007,-1.363281249999943],[37.77832031200006,-1.366210937999938],[37.78210449200003,-1.372070312999938],[37.784118652000075,-1.371887206999929],[37.786071777000075,-1.375305175999927],[37.78991699200003,-1.375793456999929],[37.791076660000044,-1.380798339999956],[37.79431152300003,-1.383972167999957],[37.79711914100005,-1.387878417999957],[37.798706055000025,-1.391418456999929],[37.79907226600005,-1.395080565999933],[37.801696777000075,-1.393920897999976],[37.80450439500004,-1.394470214999956],[37.80548095700004,-1.399108886999954],[37.80511474600007,-1.402221679999968],[37.808105469000054,-1.414611815999933],[37.808471680000025,-1.419006347999925],[37.81030273400006,-1.419982909999931],[37.81030273400006,-1.423706054999968],[37.8125,-1.426696776999961],[37.81188964800003,-1.429321288999972],[37.81372070300006,-1.435180663999972],[37.81292724600007,-1.438415526999961],[37.817687988000046,-1.442016601999967],[37.81652832000003,-1.443969726999967],[37.819091797000056,-1.445922851999967],[37.815917969000054,-1.447204589999956],[37.809692383000026,-1.447570800999927],[37.80688476600005,-1.449096679999968],[37.79907226600005,-1.45477294899996],[37.78790283200004,-1.465881347999925],[37.783081055000025,-1.468872069999975],[37.78070068400007,-1.471618651999961],[37.77972412100007,-1.474609374999943],[37.77972412100007,-1.477783202999945],[37.77832031200006,-1.480712890999939],[37.77410888700007,-1.485778808999953],[37.77148437500006,-1.486877440999933],[37.75988769500003,-1.488403319999975],[37.754516602000024,-1.490112304999968],[37.75207519500003,-1.48937988299997],[37.74871826200007,-1.491577147999976],[37.74548339800003,-1.492797851999967],[37.738891602000024,-1.494873046999942],[37.733703613000046,-1.495910644999981],[37.72509765600006,-1.493408202999945],[37.72027587900004,-1.492614745999958],[37.713073730000076,-1.488586425999927],[37.70727539100005,-1.488891601999967],[37.70251464800003,-1.490478515999939],[37.69750976600005,-1.495910644999981],[37.69470214800003,-1.497070312999938],[37.69470214800003,-1.494384765999939],[37.69567871100003,-1.492004394999981],[37.69610595700004,-1.48797607399996],[37.68969726600005,-1.476013183999953],[37.68927002000004,-1.473815917999957],[37.688110352000024,-1.471984862999932],[37.68127441400003,-1.465026854999962],[37.67309570300006,-1.462707519999981],[37.67327880900007,-1.458374022999976],[37.67169189500004,-1.455810546999942],[37.66967773400006,-1.455505370999958],[37.66772460900006,-1.454406737999932],[37.66650390600006,-1.452087401999961],[37.659118652000075,-1.450927733999947],[37.65270996100003,-1.447875976999967],[37.65209960900006,-1.445617675999927],[37.65209960900006,-1.437011718999941],[37.64892578100006,-1.432617187999938],[37.64788818400007,-1.429504394999981],[37.64611816400003,-1.426391601999967],[37.64532470700004,-1.422790526999961],[37.64550781200006,-1.418884276999961],[37.644714355000076,-1.416015624999943],[37.64587402300003,-1.413818358999947],[37.64587402300003,-1.411926269999981],[37.64312744100005,-1.406127929999968],[37.63891601600005,-1.402770995999958],[37.63671875000006,-1.400329589999956],[37.63348388700007,-1.398620604999962],[37.63012695300006,-1.397888183999953],[37.627685547000056,-1.394287108999947],[37.62707519500003,-1.391113280999946],[37.62792968700006,-1.387573241999974],[37.62750244100005,-1.384094237999932],[37.624511719000054,-1.382019042999957],[37.62188720700004,-1.381408690999933],[37.624511719000054,-1.376220702999945],[37.61853027300003,-1.373718261999954],[37.61547851600005,-1.371398925999927],[37.615112305000025,-1.362487792999957],[37.61407470700004,-1.359680175999927],[37.61230468700006,-1.357482909999931],[37.610107422000056,-1.356079101999967],[37.608520508000026,-1.350097655999946],[37.60632324200003,-1.347106933999953],[37.60491943400007,-1.342529296999942],[37.60192871100003,-1.338806151999961],[37.599487305000025,-1.336975097999925],[37.59710693400007,-1.332702636999954],[37.59570312500006,-1.331115722999925],[37.58868408200004,-1.329895019999981],[37.58587646500007,-1.326721190999933],[37.581909180000025,-1.319580077999945],[37.57971191400003,-1.31750488299997],[37.57672119100005,-1.317810058999953],[37.57391357400007,-1.31750488299997],[37.57147216800007,-1.315612792999957],[37.56329345700004,-1.315795897999976],[37.560729980000076,-1.313415526999961],[37.55767822300004,-1.307128905999946],[37.555297852000024,-1.305297851999967],[37.55212402300003,-1.304687499999943],[37.54772949200003,-1.304626464999956],[37.541076660000044,-1.305969237999932],[37.537292480000076,-1.301208495999958],[37.526306152000075,-1.281982421999942],[37.51452636700003,-1.265197753999928],[37.512329102000024,-1.26281738299997],[37.50708007800006,-1.26141357399996],[37.50531005900007,-1.259887694999975],[37.50250244100005,-1.254028319999975],[37.50012207000003,-1.252380370999958],[37.48950195300006,-1.251586913999972],[37.486511230000076,-1.25],[37.48431396500007,-1.244995116999974],[37.48089599600007,-1.242309569999975],[37.47967529300007,-1.238525390999939],[37.47808837900004,-1.235717772999976],[37.474487305000025,-1.231323241999974],[37.46527099600007,-1.230529784999931],[37.46228027300003,-1.231018065999933],[37.45751953100006,-1.226196288999972],[37.45611572300004,-1.223388671999942],[37.45111084000007,-1.222106933999953],[37.45172119100005,-1.219116210999971],[37.44989013700007,-1.217407226999967],[37.44848632800006,-1.219482421999942],[37.44628906200006,-1.220825194999975],[37.44390869100005,-1.218994140999939],[37.43792724600007,-1.211914062999938],[37.43652343700006,-1.209472655999946],[37.43408203100006,-1.208007812999938],[37.43127441400003,-1.207824706999929],[37.429870605000076,-1.205810546999942],[37.43090820300006,-1.200683593999941],[37.43072509800004,-1.198120116999974],[37.42767334000007,-1.197692870999958],[37.42572021500007,-1.194396972999925],[37.42108154300007,-1.193969726999967],[37.418884277000075,-1.191894530999946],[37.420104980000076,-1.187622069999975],[37.41809082000003,-1.183776854999962],[37.41369628900003,-1.183715819999975],[37.41131591800007,-1.182006835999971],[37.411071777000075,-1.178771972999925],[37.40869140600006,-1.176269530999946],[37.40789794900007,-1.173217772999976],[37.409301758000026,-1.170471190999933],[37.407714844000054,-1.168823241999974],[37.403076172000056,-1.17156982399996],[37.39727783200004,-1.169372558999953],[37.39428710900006,-1.171081542999957],[37.39111328100006,-1.16961669899996],[37.38830566400003,-1.167602538999972],[37.38708496100003,-1.165588378999928],[37.386901855000076,-1.163696288999972],[37.38592529300007,-1.161499022999976],[37.38153076200007,-1.160217284999931],[37.38012695300006,-1.157714843999941],[37.37548828100006,-1.153625487999932],[37.37347412100007,-1.150878905999946],[37.366699219000054,-1.143798827999945],[37.36407470700004,-1.13977050799997],[37.365295410000044,-1.135375976999967],[37.36267089800003,-1.129577636999954],[37.36108398400006,-1.128173827999945],[37.35827636700003,-1.129577636999954],[37.35632324200003,-1.13000488299997],[37.353698730000076,-1.128906249999943],[37.35131835900006,-1.127319335999971],[37.34808349600007,-1.123474120999958],[37.345886230000076,-1.121704101999967],[37.34332275400004,-1.117980956999929],[37.345886230000076,-1.11297607399996],[37.358703613000046,-1.098083495999958],[37.36309814500004,-1.093994140999939],[37.36468505900007,-1.090576171999942],[37.387329102000024,-1.057983397999976],[37.41809082000003,-1.035888671999942],[37.44891357400007,-1.010681151999961],[37.44689941400003,-1.008178710999971],[37.45007324200003,-1.006225585999971],[37.452270508000026,-1.002929687999938],[37.47027587900004,-0.997070312999938],[37.47290039100005,-0.986083983999947],[37.49969482400007,-0.988586425999927],[37.504089355000076,-0.989807128999928],[37.52172851600005,-0.99188232399996],[37.542480469000054,-0.993591308999953],[37.51367187500006,-1.04071044899996],[37.51312255900007,-1.043273925999927],[37.52032470700004,-1.056213378999928],[37.52008056600005,-1.065979003999928],[37.526489258000026,-1.076416015999939],[37.54772949200003,-1.079406737999932],[37.559509277000075,-1.082885741999974],[37.57250976600005,-1.083007812999938],[37.59490966800007,-1.086425780999946],[37.59613037100007,-1.094299315999933],[37.59692382800006,-1.109680175999927],[37.59710693400007,-1.116271972999925],[37.596313477000024,-1.118225097999925],[37.59747314500004,-1.123229979999962]]]}}]}