{"type":"FeatureCollection","features":[{"type":"Feature","properties":{"OBJECTID_1":17,"OBJECTID":17,"COUNTY_NAM":"MACHAKOS","COUNTY_COD":16,"Shape_Leng":5.73549952454,"Shape_Area":0.49103509087,"county_name":"MACHAKOS","county_code":"C787D897-9D14-48E5-899D-47A3F1F4E1F4","county_numeric_code":16,"source_polygon":"geojson/county_16.geojson"},"geometry":{"type":"Polygon","coordinates":[[[37.744007457000066,-0.779407847999948],[37.74688720700004,-0.785888671999942],[37.74749755900007,-0.788696288999972],[37.74768066400003,-0.792724608999947],[37.74969482400007,-0.799682616999974],[37.75012207000003,-0.803222655999946],[37.75750732500006,-0.822509765999939],[37.761901855000076,-0.823791503999928],[37.76928710900006,-0.823608397999976],[37.77130127000004,-0.820983886999954],[37.774719238000046,-0.822204589999956],[37.77789306600005,-0.824218749999943],[37.783081055000025,-0.823608397999976],[37.78833007800006,-0.821777343999941],[37.792114258000026,-0.818481444999975],[37.79632568400007,-0.816528319999975],[37.79809570300006,-0.812927245999958],[37.80310058600003,-0.805908202999944],[37.80627441400003,-0.802795409999931],[37.807922363000046,-0.807128905999946],[37.80767822300004,-0.811279296999942],[37.80908203100006,-0.814208983999947],[37.8125,-0.811523437999938],[37.81530761700003,-0.807312011999954],[37.81829834000007,-0.804809569999975],[37.82189941400003,-0.804992675999927],[37.82507324200003,-0.805908202999944],[37.828125,-0.80578613299997],[37.83148193400007,-0.812011718999941],[37.83447265600006,-0.813476562999938],[37.83770752000004,-0.810913085999971],[37.84490966800007,-0.811584472999925],[37.84509277300003,-0.814819335999971],[37.84411621100003,-0.818725585999971],[37.84729003900003,-0.820983886999954],[37.84692382800006,-0.829101562999938],[37.84747314500004,-0.832885741999974],[37.84350585900006,-0.834228515999939],[37.841308594000054,-0.835998534999931],[37.84191894500003,-0.839477538999972],[37.84411621100003,-0.841796874999943],[37.84027099600007,-0.844726562999938],[37.83691406200006,-0.846008300999927],[37.83770752000004,-0.848999022999976],[37.83569335900006,-0.851806640999939],[37.82989502000004,-0.857604979999962],[37.82910156200006,-0.860717772999976],[37.83032226600005,-0.864807128999928],[37.82647705100004,-0.86688232399996],[37.82647705100004,-0.870910644999981],[37.82452392600004,-0.875610351999967],[37.82171630900007,-0.880126952999944],[37.820922852000024,-0.883117675999927],[37.82312011700003,-0.89062],[37.82147216800007,-0.894775390999939],[37.81848144500003,-0.896423339999956],[37.81951904300007,-0.900024413999972],[37.82391357400007,-0.90008544899996],[37.827270508000026,-0.901123046999942],[37.83032226600005,-0.903625487999932],[37.833312988000046,-0.906799315999933],[37.83367919900007,-0.911010741999974],[37.83728027300003,-0.910400390999939],[37.838500977000024,-0.913513183999953],[37.838073730000076,-0.919921874999943],[37.841125488000046,-0.920227050999927],[37.842895508000026,-0.923889159999931],[37.843078613000046,-0.927795409999931],[37.84692382800006,-0.928710937999938],[37.84930419900007,-0.931091308999953],[37.850524902000075,-0.934509276999961],[37.852478027000075,-0.937927245999958],[37.850524902000075,-0.94110107399996],[37.84747314500004,-0.942016601999967],[37.84729003900003,-0.946289062999938],[37.850524902000075,-0.949523925999927],[37.849670410000044,-0.953308104999962],[37.85290527300003,-0.957275390999939],[37.852478027000075,-0.960693358999947],[37.84808349600007,-0.961975097999925],[37.84509277300003,-0.964111327999944],[37.84808349600007,-0.965209960999971],[37.852294922000056,-0.966125487999932],[37.85772705100004,-0.966308593999941],[37.860290527000075,-0.968017577999944],[37.86328125000006,-0.968811034999931],[37.86309814500004,-0.972412108999947],[37.866699219000054,-0.973083495999958],[37.86688232400007,-0.977600097999925],[37.86328125000006,-0.978881835999971],[37.86492919900007,-0.981506347999925],[37.861511230000076,-0.982604979999962],[37.85827636700003,-0.985290526999961],[37.85467529300007,-0.986511229999962],[37.85168457000003,-0.989013671999942],[37.84991455100004,-0.992675780999946],[37.84667968700006,-0.995300292999957],[37.84729003900003,-0.999511718999941],[37.84991455100004,-1.002807616999974],[37.85028076200007,-1.007812499999943],[37.849670410000044,-1.012207030999946],[37.84887695300006,-1.025024413999972],[37.84692382800006,-1.028808593999941],[37.84808349600007,-1.039794921999942],[37.84552002000004,-1.047607421999942],[37.84411621100003,-1.050415038999972],[37.841308594000054,-1.05187988299997],[37.83569335900006,-1.059875487999932],[37.83410644500003,-1.063415526999961],[37.83007812500006,-1.068908690999933],[37.82629394500003,-1.070495604999962],[37.82171630900007,-1.070678710999971],[37.81829834000007,-1.080505370999958],[37.81610107400007,-1.083007812999938],[37.81469726600005,-1.085510253999928],[37.808471680000025,-1.092407226999967],[37.808105469000054,-1.096679687999938],[37.80712890600006,-1.101501464999956],[37.80609130900007,-1.105102538999972],[37.80230712900004,-1.112487792999957],[37.801879883000026,-1.116394042999957],[37.798889160000044,-1.118713378999928],[37.79608154300007,-1.122497558999953],[37.79150390600006,-1.123229979999962],[37.76727294900007,-1.105285644999981],[37.76171875000006,-1.100097655999946],[37.75250244100005,-1.094299315999933],[37.74591064500004,-1.08898925799997],[37.733703613000046,-1.080078124999943],[37.692687988000046,-1.081909179999968],[37.66650390600006,-1.083618163999972],[37.60351562500006,-1.086486815999933],[37.59490966800007,-1.086425780999946],[37.59613037100007,-1.094299315999933],[37.59692382800006,-1.109680175999927],[37.59667968700006,-1.117187499999943],[37.59747314500004,-1.123229979999962],[37.59790039100005,-1.130920409999931],[37.600708008000026,-1.131408690999933],[37.60290527300003,-1.134094237999932],[37.604125977000024,-1.136718749999943],[37.60388183600003,-1.139587401999961],[37.60571289100005,-1.142028808999953],[37.60913085900006,-1.140686034999931],[37.61853027300003,-1.143310546999942],[37.62469482400007,-1.148010253999928],[37.62652587900004,-1.15148925799997],[37.63311767600004,-1.160522460999971],[37.63507080100004,-1.162597655999946],[37.63751220700004,-1.166809081999929],[37.643493652000075,-1.180419921999942],[37.64447021500007,-1.183715819999975],[37.64691162100007,-1.187805175999927],[37.64947509800004,-1.195800780999946],[37.651672363000046,-1.198120116999974],[37.65429687500006,-1.200012206999929],[37.65588378900003,-1.203308104999962],[37.65692138700007,-1.207214354999962],[37.66009521500007,-1.209411620999958],[37.66192627000004,-1.211608886999954],[37.66351318400007,-1.214904784999931],[37.66632080100004,-1.217529296999942],[37.668701172000056,-1.222290038999972],[37.674926758000026,-1.228698729999962],[37.676696777000075,-1.231811522999976],[37.68548584000007,-1.235595702999945],[37.68829345700004,-1.23937988299997],[37.68872070300006,-1.244201659999931],[37.69372558600003,-1.252990722999925],[37.69451904300007,-1.257202147999976],[37.695922852000024,-1.260925292999957],[37.69812011700003,-1.269287108999947],[37.701904297000056,-1.271728515999939],[37.70391845700004,-1.276123046999942],[37.70629882800006,-1.279479979999962],[37.70910644500003,-1.287719726999967],[37.713500977000024,-1.29211425799997],[37.71392822300004,-1.297607421999942],[37.71691894500003,-1.299987792999957],[37.717895508000026,-1.303710937999938],[37.71990966800007,-1.306823729999962],[37.72149658200004,-1.310729979999962],[37.724487305000025,-1.313781737999932],[37.724121094000054,-1.316894530999946],[37.72509765600006,-1.320678710999971],[37.72851562500006,-1.328613280999946],[37.732482910000044,-1.336425780999946],[37.73211669900007,-1.340026854999962],[37.73767089800003,-1.342285155999946],[37.73992919900007,-1.346374511999954],[37.74249267600004,-1.348876952999945],[37.744873047000056,-1.350402831999929],[37.74572753900003,-1.35321044899996],[37.744873047000056,-1.356018065999933],[37.74829101600005,-1.356811522999976],[37.76251220700004,-1.355102538999972],[37.765686035000044,-1.355895995999958],[37.768493652000075,-1.357177733999947],[37.77087402300003,-1.359008788999972],[37.77551269500003,-1.360229491999974],[37.78009033200004,-1.369323729999962],[37.783081055000025,-1.371887206999929],[37.786071777000075,-1.375305175999927],[37.78991699200003,-1.375793456999929],[37.79132080100004,-1.380126952999945],[37.79650878900003,-1.387023925999927],[37.798706055000025,-1.391418456999929],[37.79907226600005,-1.395080565999933],[37.801696777000075,-1.393920897999976],[37.80450439500004,-1.394409179999968],[37.80548095700004,-1.399108886999954],[37.80511474600007,-1.402221679999968],[37.80590820300006,-1.406005858999947],[37.81030273400006,-1.423706054999968],[37.81231689500004,-1.427978515999939],[37.812683105000076,-1.432006835999971],[37.81372070300006,-1.435180663999972],[37.81292724600007,-1.438415526999961],[37.81530761700003,-1.440307616999974],[37.819091797000056,-1.445922851999967],[37.815917969000054,-1.447204589999956],[37.809692383000026,-1.447509765999939],[37.80688476600005,-1.449096679999968],[37.79827880900007,-1.455627440999933],[37.78790283200004,-1.465881347999925],[37.783081055000025,-1.468811034999931],[37.78070068400007,-1.471618651999961],[37.77972412100007,-1.474609374999943],[37.77972412100007,-1.477783202999945],[37.77770996100003,-1.481384276999961],[37.77410888700007,-1.485778808999953],[37.77032470700004,-1.486999511999954],[37.75988769500003,-1.488403319999975],[37.75549316400003,-1.489807128999928],[37.75207519500003,-1.48937988299997],[37.74871826200007,-1.491577147999976],[37.74548339800003,-1.492797851999967],[37.738891602000024,-1.494812011999954],[37.733703613000046,-1.495910644999981],[37.72509765600006,-1.493408202999945],[37.72027587900004,-1.492614745999958],[37.71173095700004,-1.488525390999939],[37.70727539100005,-1.488891601999967],[37.70251464800003,-1.490478515999939],[37.69750976600005,-1.495910644999981],[37.69470214800003,-1.497009276999961],[37.69689941400003,-1.501220702999945],[37.701904297000056,-1.50750732399996],[37.70550537100007,-1.506774901999961],[37.70989990400005,-1.507995604999962],[37.713500977000024,-1.509521483999947],[37.714721680000025,-1.512390136999954],[37.71911621100003,-1.519592284999931],[37.72052002000004,-1.52258300799997],[37.72308349600007,-1.524475097999925],[37.72491455100004,-1.528625487999932],[37.73132324200003,-1.539611815999933],[37.73608398400006,-1.546081542999957],[37.741699219000054,-1.552124022999976],[37.74572753900003,-1.553527831999929],[37.74969482400007,-1.553894042999957],[37.751098633000026,-1.560424804999968],[37.75250244100005,-1.563110351999967],[37.75292968700006,-1.566284179999968],[37.75012207000003,-1.568298339999956],[37.746704102000024,-1.568725585999971],[37.73748779300007,-1.574218749999943],[37.735290527000075,-1.577087401999961],[37.73309326200007,-1.580993651999961],[37.73590087900004,-1.583984374999943],[37.735290527000075,-1.591613769999981],[37.73272705100004,-1.594177245999958],[37.729125977000024,-1.596313476999967],[37.72851562500006,-1.601501464999956],[37.724487305000025,-1.604309081999929],[37.72149658200004,-1.606994628999928],[37.718078613000046,-1.607910155999946],[37.71148681600005,-1.604187011999954],[37.71051025400004,-1.601318358999947],[37.70587158200004,-1.593322753999928],[37.70471191400003,-1.589416503999928],[37.703125,-1.586425780999946],[37.70092773400006,-1.583984374999943],[37.69830322300004,-1.585388183999953],[37.68908691400003,-1.587097167999957],[37.684692383000026,-1.585205077999945],[37.685729980000076,-1.590087890999939],[37.68927002000004,-1.596923827999945],[37.68988037100007,-1.599975585999971],[37.68829345700004,-1.603820800999927],[37.68707275400004,-1.608825683999953],[37.687683105000076,-1.613586425999927],[37.687683105000076,-1.617614745999958],[37.68389892600004,-1.619812011999954],[37.68090820300006,-1.626220702999945],[37.673889160000044,-1.631103515999939],[37.67150878900003,-1.634582519999981],[37.67071533200004,-1.637390136999954],[37.66827392600004,-1.640808104999962],[37.66528320300006,-1.643310546999942],[37.660888672000056,-1.643127440999933],[37.65789794900007,-1.639709472999925],[37.65649414100005,-1.636108397999976],[37.65527343700006,-1.630798339999956],[37.65051269500003,-1.628784179999968],[37.649902344000054,-1.624084472999925],[37.64611816400003,-1.617309569999975],[37.64447021500007,-1.613525390999939],[37.64312744100005,-1.608581542999957],[37.64288330100004,-1.598083495999958],[37.64227294900007,-1.595214843999941],[37.64288330100004,-1.592224120999958],[37.640686035000044,-1.590087890999939],[37.640686035000044,-1.586608886999954],[37.63488769500003,-1.589416503999928],[37.63189697300004,-1.589294433999953],[37.62829589800003,-1.585998534999931],[37.62347412100007,-1.580688476999967],[37.619873047000056,-1.573608397999976],[37.61950683600003,-1.57000732399996],[37.61853027300003,-1.566528319999975],[37.61431884800004,-1.564208983999947],[37.60931396500007,-1.565612792999957],[37.60711669900007,-1.561889647999976],[37.60192871100003,-1.561523437999938],[37.59991455100004,-1.559326171999942],[37.59747314500004,-1.55187988299997],[37.59490966800007,-1.553588866999974],[37.592712402000075,-1.55578613299997],[37.58868408200004,-1.558105468999941],[37.584716797000056,-1.559509276999961],[37.582092285000044,-1.561523437999938],[37.57910156200006,-1.564575194999975],[37.57452392600004,-1.564514159999931],[37.57592773400006,-1.55828857399996],[37.57171630900007,-1.557617187999938],[37.567871094000054,-1.557678222999925],[37.56372070300006,-1.559326171999942],[37.55828857400007,-1.557678222999925],[37.55731201200007,-1.554687499999943],[37.56188964800003,-1.552978515999939],[37.559326172000056,-1.550109862999932],[37.551696777000075,-1.548400878999928],[37.55072021500007,-1.544799804999968],[37.55407714800003,-1.542602538999972],[37.55432128900003,-1.539611815999933],[37.55108642600004,-1.537414550999927],[37.54791259800004,-1.536682128999928],[37.545104980000076,-1.537902831999929],[37.54309082000003,-1.540283202999945],[37.534118652000075,-1.539611815999933],[37.53070068400007,-1.538085937999938],[37.526489258000026,-1.537292479999962],[37.52288818400007,-1.537719726999967],[37.52050781200006,-1.536193847999925],[37.52069091800007,-1.533020019999981],[37.518310547000056,-1.531127929999968],[37.516906738000046,-1.526611327999945],[37.51287841800007,-1.524780272999976],[37.508728027000075,-1.526977538999972],[37.504516602000024,-1.526977538999972],[37.50152587900004,-1.524414062999938],[37.49768066400003,-1.523193358999947],[37.49353027300003,-1.519592284999931],[37.48669433600003,-1.515502929999968],[37.48272705100004,-1.516906737999932],[37.47930908200004,-1.516296386999954],[37.47491455100004,-1.517700194999975],[37.47009277300003,-1.517211913999972],[37.46551513700007,-1.517517089999956],[37.45947265600006,-1.519592284999931],[37.45507812500006,-1.521606444999975],[37.45288085900006,-1.523498534999931],[37.45007324200003,-1.527282714999956],[37.445495605000076,-1.530029296999942],[37.44110107400007,-1.53039550799997],[37.43872070300006,-1.528381347999925],[37.435729980000076,-1.531311034999931],[37.43212890600006,-1.530700683999953],[37.42352294900007,-1.53039550799997],[37.41931152300003,-1.529174804999968],[37.41149902300003,-1.525207519999981],[37.40393066400003,-1.522521972999925],[37.399719238000046,-1.520507812999938],[37.39489746100003,-1.521118163999972],[37.391906738000046,-1.520812987999932],[37.38848877000004,-1.520202636999954],[37.38610839800003,-1.518188476999967],[37.38208007800006,-1.51867675799997],[37.37872314500004,-1.519592284999931],[37.36950683600003,-1.529785155999946],[37.36572265600006,-1.531921386999954],[37.36431884800004,-1.534729003999928],[37.36132812500006,-1.533020019999981],[37.35827636700003,-1.541015624999943],[37.35528564500004,-1.541992187999938],[37.35388183600003,-1.546203612999932],[37.34667968700006,-1.551208495999958],[37.342712402000075,-1.552978515999939],[37.34008789100005,-1.554626464999956],[37.334899902000075,-1.559875487999932],[37.33789062500006,-1.564392089999956],[37.341125488000046,-1.568115233999947],[37.34228515600006,-1.571594237999932],[37.347717285000044,-1.576110839999956],[37.349670410000044,-1.578918456999929],[37.35290527300003,-1.580993651999961],[37.35571289100005,-1.583618163999972],[37.36248779300007,-1.588684081999929],[37.36627197300004,-1.597106933999953],[37.368286133000026,-1.600524901999961],[37.37030029300007,-1.602600097999925],[37.37188720700004,-1.607727050999927],[37.374511719000054,-1.613586425999927],[37.375915527000075,-1.618896483999947],[37.37792968700006,-1.623718261999954],[37.382690430000025,-1.631408690999933],[37.382873535000044,-1.635925292999957],[37.38488769500003,-1.639099120999958],[37.38671875000006,-1.645202636999954],[37.38952636700003,-1.646789550999927],[37.39312744100005,-1.652587890999939],[37.39587402300003,-1.659484862999932],[37.40051269500003,-1.66320800799997],[37.401306152000075,-1.668212890999939],[37.40551757800006,-1.676208495999958],[37.407714844000054,-1.682312011999954],[37.409484863000046,-1.685424804999968],[37.412292480000076,-1.687988280999946],[37.408081055000025,-1.689819335999971],[37.40472412100007,-1.690612792999957],[37.40032959000007,-1.693176269999981],[37.38751220700004,-1.698425292999957],[37.383911133000026,-1.701416015999939],[37.379089355000076,-1.702514647999976],[37.374877930000025,-1.704528808999953],[37.37152099600007,-1.704895019999981],[37.365112305000025,-1.703979491999974],[37.35809326200007,-1.70617675799997],[37.35430908200004,-1.704711913999972],[37.34790039100005,-1.704101562999938],[37.34210205100004,-1.700012206999929],[37.338073730000076,-1.701110839999956],[37.335083008000026,-1.701110839999956],[37.331909180000025,-1.698974608999947],[37.32910156200006,-1.699829101999967],[37.32067871100003,-1.700927733999947],[37.31231689500004,-1.700012206999929],[37.30249023400006,-1.705505370999958],[37.28808593700006,-1.711486815999933],[37.28930664100005,-1.698425292999957],[37.27893066400003,-1.687377929999968],[37.26507568400007,-1.680175780999946],[37.272094727000024,-1.668090819999975],[37.262329102000024,-1.651794433999953],[37.257324219000054,-1.644592284999931],[37.25250244100005,-1.634826659999931],[37.25207519500003,-1.605224608999947],[37.251281738000046,-1.591918944999975],[37.24450683600003,-1.591918944999975],[37.23687744100005,-1.588623046999942],[37.23187255900007,-1.588928222999925],[37.229125977000024,-1.591918944999975],[37.21032714800003,-1.600280761999954],[37.175109863000046,-1.61688232399996],[37.19012451200007,-1.647827147999976],[37.19189453100006,-1.652709960999971],[37.19451904300007,-1.681884765999939],[37.19671630900007,-1.719909667999957],[37.19390869100005,-1.721191405999946],[37.176513672000056,-1.75360107399996],[37.16571044900007,-1.760925292999957],[37.15527343700006,-1.777404784999931],[37.15228271500007,-1.77508544899996],[37.15551757800006,-1.768310546999942],[37.158081055000025,-1.764709472999925],[37.15527343700006,-1.761718749999943],[37.151123047000056,-1.760681151999961],[37.14868164100005,-1.758422851999967],[37.14770507800006,-1.754211425999927],[37.14752197300004,-1.75],[37.14868164100005,-1.745117187999938],[37.148315430000025,-1.739013671999942],[37.14550781200006,-1.736083983999947],[37.141906738000046,-1.735595702999945],[37.134277344000054,-1.73992919899996],[37.132324219000054,-1.742492675999927],[37.12890625000006,-1.74188232399996],[37.12048339800003,-1.737609862999932],[37.11712646500007,-1.736511229999962],[37.11248779300007,-1.733703612999932],[37.10510253900003,-1.724609374999943],[37.08868408200004,-1.702209472999925],[37.08447265600006,-1.698486327999945],[37.07611084000007,-1.685729979999962],[37.007324219000054,-1.593627929999968],[36.999511719000054,-1.595825194999975],[36.99090576200007,-1.584899901999961],[36.99609375000006,-1.580993651999961],[36.97991943400007,-1.556701659999931],[36.97650146500007,-1.552612304999968],[36.97290039100005,-1.554687499999943],[36.96728515600006,-1.553710937999938],[36.963073730000076,-1.55047607399996],[36.95867919900007,-1.543823241999974],[36.956909180000025,-1.540588378999928],[36.95672607400007,-1.535888671999942],[36.958312988000046,-1.530700683999953],[36.96173095700004,-1.529602050999927],[36.96289062500006,-1.526611327999945],[36.96368408200004,-1.510681151999961],[36.96868896500007,-1.505310058999953],[36.971313477000024,-1.501220702999945],[36.97369384800004,-1.499389647999976],[36.97430419900007,-1.496520995999958],[36.97229003900003,-1.493225097999925],[36.97113037100007,-1.489501952999945],[36.972717285000044,-1.485229491999974],[36.97692871100003,-1.476379394999981],[36.960083008000026,-1.465881347999925],[36.94750976600005,-1.459228515999939],[36.948730469000054,-1.454589843999941],[36.944091797000056,-1.45281982399996],[36.936279297000056,-1.453308104999962],[36.933105469000054,-1.454711913999972],[36.93048095700004,-1.456604003999928],[36.92712402300003,-1.455810546999942],[36.92327880900007,-1.45672607399996],[36.92089843700006,-1.459411620999958],[36.917297363000046,-1.462524413999972],[36.91027832000003,-1.466308593999941],[36.906311035000044,-1.469482421999942],[36.89910888700007,-1.473999022999976],[36.89587402300003,-1.477294921999942],[36.89227294900007,-1.47961425799997],[36.88891601600005,-1.483093261999954],[36.885681152000075,-1.484313964999956],[36.87829589800003,-1.475524901999961],[36.88985439800007,-1.412247798999943],[36.93127441400003,-1.430480956999929],[36.94285210900006,-1.430556382999953],[36.94750990400007,-1.433190445999969],[36.95006068600003,-1.43554611299993],[36.95164522400006,-1.435701509999944],[36.95538573700003,-1.434787796999956],[36.95665636900003,-1.435815723999951],[36.95778423300004,-1.440384288999951],[36.95979725700005,-1.441897625999957],[36.96105361300005,-1.442154607999953],[36.96209581700003,-1.436415347999969],[36.960211284000025,-1.436001321999925],[36.95952599900005,-1.435173268999961],[36.95485261400006,-1.426175778999948],[36.948592252000026,-1.422206837999966],[36.94708843300003,-1.420027251999954],[36.945280042000036,-1.406357247999949],[36.942745916000035,-1.403882608999936],[36.94231761300006,-1.401538839999944],[36.94146100700004,-1.400777411999968],[36.93847478400005,-1.399421119999943],[36.936464139000066,-1.396768020999957],[36.93161003900008,-1.396327819999954],[36.928124129000025,-1.391997200999924],[36.926827322000065,-1.391735460999939],[36.924337097000034,-1.392683595999927],[36.922703356000056,-1.392026731999977],[36.922012806000055,-1.390561417999948],[36.92110330100007,-1.384582265999939],[36.91632080100004,-1.375305175999927],[36.91362626600005,-1.370900652999978],[36.90555348100003,-1.361835995999968],[36.93389892600004,-1.336303710999971],[36.96051025400004,-1.346008300999927],[36.96577560000003,-1.351794668999958],[36.983703613000046,-1.312377929999968],[36.97387695300006,-1.287109374999943],[36.994873047000056,-1.27899169899996],[37.00012207000003,-1.292297362999932],[37.00207519500003,-1.298278808999953],[37.02587890600006,-1.289489745999958],[37.07562437200005,-1.301210554999955],[37.07626210700005,-1.299468395999952],[37.075759316000074,-1.298369704999971],[37.074660626000025,-1.297680695999929],[37.07326398600003,-1.298202107999941],[37.07244462400007,-1.297345501999928],[37.07229564900007,-1.295706777999953],[37.072761195000055,-1.294105296999931],[37.072388758000045,-1.29257830399996],[37.07311501100003,-1.291237529999933],[37.07595496600004,-1.288862801999926],[37.07606822400004,-1.284132628999942],[37.07652458600006,-1.282603649999942],[37.07730073400006,-1.281541025999957],[37.07843997300006,-1.281161279999935],[37.08114816400007,-1.282560345999968],[37.08234070100008,-1.28264029199994],[37.08302357800005,-1.281581],[37.08376974600003,-1.277890131999925],[37.08496894500007,-1.276297861999979],[37.087190795000026,-1.274812187999942],[37.08968788800007,-1.274380234999967],[37.09126181800008,-1.273406708999971],[37.09312742700007,-1.273224882999955],[37.09580367600006,-1.271967254999936],[37.09720387500005,-1.270735660999947],[37.09827106300003,-1.271192516999975],[37.09975584700004,-1.272987820999958],[37.10045540900006,-1.273237663999964],[37.10071952900006,-1.272955697999976],[37.102237030000026,-1.267881496999962],[37.10217992300005,-1.266330088999951],[37.103664707000064,-1.26376978899998],[37.10316977900004,-1.261552130999974],[37.10157078100008,-1.260124454999925],[37.10219895900008,-1.258059081999932],[37.107414737000056,-1.257944867999925],[37.10864253900007,-1.257783064999956],[37.10943252000004,-1.257164404999969],[37.10993696600008,-1.253585695999959],[37.10892807400006,-1.247380060999944],[37.10927071700007,-1.244886385999962],[37.11073646500006,-1.244543743999941],[37.11617115400003,-1.246142741999961],[37.11720859900004,-1.246057080999947],[37.118969400000026,-1.244981564999932],[37.118731454000056,-1.242602103999957],[37.11902650700006,-1.239166161999947],[37.11855061500006,-1.235730219999937],[37.12057791500007,-1.232655956999963],[37.12352844700007,-1.232589331999975],[37.12558430100006,-1.23067624],[37.12706908500007,-1.230628655999965],[37.131275972000026,-1.231589957999972],[37.13586357300005,-1.23093322699998],[37.13923665800007,-1.226899257999946],[37.13990931300003,-1.224667194999938],[37.140595638000036,-1.223893084999929],[37.14242317700007,-1.22353396099993],[37.150816106000036,-1.223318951999943],[37.152196193000066,-1.222395720999941],[37.15435674400004,-1.219378563999953],[37.15522286800007,-1.217627280999977],[37.15488974300007,-1.214181820999954],[37.15598429500005,-1.210460343999955],[37.155870081000046,-1.209822648999932],[37.15493733200003,-1.209061220999956],[37.152967139000054,-1.208575810999946],[37.15278630000006,-1.207509812999945],[37.15313846000004,-1.206653206999931],[37.155508403000056,-1.20450217399997],[37.159248916000024,-1.203797853999959],[37.15965818300003,-1.203331478999928],[37.156279348000055,-1.196973558999957],[37.15553695700004,-1.194460848999938],[37.15559406400007,-1.193147385999964],[37.157031258000075,-1.19194813799993],[37.161190556000065,-1.191358030999936],[37.165711532000046,-1.186627662999968],[37.16702499400003,-1.183458220999967],[37.169699508000065,-1.180136492999964],[37.17061322100005,-1.17695753299995],[37.17419193100005,-1.171265862999974],[37.17647621300006,-1.169114829999955],[37.18039756500008,-1.166364172999977],[37.18232968700005,-1.163670622999973],[37.182367759000044,-1.160044324999944],[37.18117802800003,-1.158159790999946],[37.18058792200003,-1.15604683],[37.18071165400005,-1.154628670999955],[37.185375398000076,-1.146662235999941],[37.185127934000036,-1.145072755999934],[37.18325291800005,-1.143321472999958],[37.18324340100003,-1.142093670999941],[37.18680307400007,-1.136678017999941],[37.18686018100004,-1.135383590999936],[37.18493757700003,-1.132385469999974],[37.18205367000007,-1.131785845999957],[37.18171102800005,-1.131157667999958],[37.181739581000045,-1.127959671999975],[37.18022624400004,-1.127521851999973],[37.17921735200008,-1.126484406999964],[37.17749023400006,-1.120910644999981],[37.17547607400007,-1.117492675999927],[37.17572021500007,-1.113525390999939],[37.17852783200004,-1.110900878999928],[37.17977320700004,-1.108127087999947],[37.18064577900003,-1.107380079999928],[37.18550582800003,-1.105494356999941],[37.187903135000056,-1.103953655999931],[37.18870620300004,-1.102401057999941],[37.18897984100005,-1.098974633999944],[37.19000895800008,-1.095911077999972],[37.19269774900005,-1.09218722199995],[37.19584458600008,-1.090337190999946],[37.201323295000066,-1.08833844399993],[37.205552787000045,-1.083067936999953],[37.21133487700007,-1.077946147999967],[37.21339311100007,-1.077184719999934],[37.22386809300008,-1.076549403999934],[37.22493409200007,-1.076244832999976],[37.22860798000005,-1.073694050999961],[37.23237704600007,-1.073427550999952],[37.23390941900004,-1.073608389999947],[37.24087648100004,-1.076340010999957],[37.243541477000065,-1.078234061999979],[37.24617792000004,-1.076235314999963],[37.24964241500004,-1.077653473999931],[37.250794074000055,-1.075968814999953],[37.254391819000034,-1.073694050999961],[37.25813233200006,-1.070239072999925],[37.26256444000006,-1.067564455999957],[37.26532668400006,-1.066633361999948],[37.27069091800007,-1.066528319999975],[37.27922726200006,-1.065097574999925],[37.281440161000035,-1.065067831999954],[37.28264773800004,-1.065841156999966],[37.28377203300005,-1.067393754999955],[37.286508413000035,-1.068416923999962],[37.287811168000076,-1.069487680999941],[37.29124948900005,-1.070213416999934],[37.295437341000024,-1.070368081999959],[37.298072594000075,-1.071432889999926],[37.30178514800008,-1.074544035999963],[37.30358402000007,-1.077875280999933],[37.30700092600006,-1.080873401999952],[37.30899015600005,-1.081415918999937],[37.31092227800008,-1.082624684999928],[37.31500543300007,-1.088363944999969],[37.31743248300006,-1.090115227999945],[37.317822715000034,-1.09187603],[37.31871739200005,-1.093265634999966],[37.31931701600007,-1.093665383999962],[37.32071613900007,-1.093712972999924],[37.325991404000035,-1.096787236999944],[37.32707643900005,-1.100032821999946],[37.32876823500004,-1.101136891999943],[37.330376751000074,-1.103230817999929],[37.33339390800006,-1.105353296999965],[37.337924401000066,-1.109988486999953],[37.342226467000046,-1.116746155999977],[37.342693696000026,-1.116585661999977],[37.34332275400004,-1.117492675999927],[37.345886230000076,-1.11297607399996],[37.36256911000004,-1.093475651999938],[37.387329102000024,-1.057983397999976],[37.41809082000003,-1.035888671999942],[37.42071533200004,-1.033081054999968],[37.406127930000025,-1.012023925999927],[37.36212158200004,-0.987609862999932],[37.33831787100007,-0.985229491999974],[37.33288574200003,-0.976379394999981],[37.34613037100007,-0.976623534999931],[37.363891602000024,-0.965698241999974],[37.36590576200007,-0.962829589999956],[37.36132812500006,-0.957397460999971],[37.35668945300006,-0.950622558999953],[37.35528564500004,-0.946594237999932],[37.34747314500004,-0.956481933999953],[37.342712402000075,-0.961608886999954],[37.33551025400004,-0.958007812999938],[37.333496094000054,-0.955017089999956],[37.330688477000024,-0.953002929999968],[37.32867431600005,-0.950378417999957],[37.32910156200006,-0.94641113299997],[37.322875977000024,-0.946105956999929],[37.31671142600004,-0.946899413999972],[37.31488037100007,-0.940795897999976],[37.31811523400006,-0.938110351999967],[37.322875977000024,-0.935485839999956],[37.32489013700007,-0.932922362999932],[37.324096680000025,-0.929809569999975],[37.319091797000056,-0.925292968999941],[37.31829834000007,-0.922302245999958],[37.31829834000007,-0.918518065999933],[37.299926758000026,-0.906127929999968],[37.28509521500007,-0.898193358999947],[37.28149414100005,-0.895690917999957],[37.26928710900006,-0.882995604999962],[37.260681152000075,-0.873291015999939],[37.25567627000004,-0.866821288999972],[37.25250244100005,-0.861206054999968],[37.241699219000054,-0.861511229999962],[37.24090576200007,-0.858703612999932],[37.23608398400006,-0.856018065999933],[37.225891113000046,-0.852111815999933],[37.22851562500006,-0.846008300999927],[37.23272705100004,-0.838195800999927],[37.24127197300004,-0.837219237999932],[37.25848388700007,-0.836914062999938],[37.260681152000075,-0.81610107399996],[37.26208496100003,-0.812011718999941],[37.26147460900006,-0.809082030999946],[37.26312255900007,-0.791076659999931],[37.265128900000036,-0.788875374999975],[37.267301426000074,-0.784958245999974],[37.27252197300004,-0.784729003999928],[37.27587890600006,-0.783020019999924],[37.28350830100004,-0.781677245999958],[37.287719727000024,-0.782775878999928],[37.28930664100005,-0.785522460999971],[37.29187011700003,-0.788391112999932],[37.29412841800007,-0.791687011999954],[37.29852294900007,-0.793579101999967],[37.30133056600005,-0.797180175999927],[37.30468750000006,-0.798828124999943],[37.306518555000025,-0.801513671999942],[37.30548095700004,-0.805297851999967],[37.30590820300006,-0.811828612999932],[37.31091308600003,-0.814880370999958],[37.31329345700004,-0.817993163999972],[37.313110352000024,-0.820983886999954],[37.31567382800006,-0.823974608999947],[37.31671142600004,-0.82812],[37.31829834000007,-0.831481933999953],[37.320922852000024,-0.834411620999958],[37.325683594000054,-0.834777831999929],[37.324096680000025,-0.838012694999975],[37.32647705100004,-0.840881347999925],[37.33129882800006,-0.842285155999946],[37.33428955100004,-0.842529296999942],[37.33789062500006,-0.844177245999958],[37.34069824200003,-0.84149169899996],[37.34387207000003,-0.840576171999942],[37.34649658200004,-0.842407226999967],[37.349670410000044,-0.841003417999957],[37.35150146500007,-0.843505858999947],[37.35491943400007,-0.842102050999927],[37.35809326200007,-0.841918944999975],[37.36248779300007,-0.843017577999944],[37.36907959000007,-0.846374511999954],[37.37670898400006,-0.848876952999944],[37.37652587900004,-0.852111815999933],[37.379516602000024,-0.855102538999972],[37.38592529300007,-0.85070800799997],[37.38830566400003,-0.854187011999954],[37.393493652000075,-0.852905272999976],[37.397094727000024,-0.854125976999967],[37.401123047000056,-0.852111815999933],[37.40509033200004,-0.849426269999981],[37.40850830100004,-0.848510741999974],[37.412292480000076,-0.848510741999974],[37.414123535000044,-0.852416991999974],[37.41149902300003,-0.85711669899996],[37.41528320300006,-0.859802245999958],[37.41949462900004,-0.860290526999961],[37.42590332000003,-0.864196776999961],[37.42907714800003,-0.863708495999958],[37.43109130900007,-0.861511229999962],[37.434875488000046,-0.860595702999944],[37.43847656200006,-0.861328124999943],[37.442321777000075,-0.86102294899996],[37.447326660000044,-0.868408202999944],[37.45532226600005,-0.869812011999954],[37.45892334000007,-0.869201659999931],[37.46051025400004,-0.871826171999942],[37.46392822300004,-0.872802733999947],[37.467712402000075,-0.872009276999961],[37.47052002000004,-0.874389647999976],[37.474121094000054,-0.875488280999946],[37.47369384800004,-0.879028319999975],[37.472717285000044,-0.882202147999976],[37.47247314500004,-0.885498046999942],[37.47509765600006,-0.886718749999943],[37.47650146500007,-0.890380858999947],[37.47808837900004,-0.893188476999967],[37.48168945300006,-0.892883300999927],[37.48669433600003,-0.897705077999944],[37.491699219000054,-0.899597167999957],[37.49548339800003,-0.902221679999968],[37.50170898400006,-0.899291991999974],[37.50512695300006,-0.899414062999938],[37.50830078100006,-0.901123046999942],[37.51251220700004,-0.901184081999929],[37.515686035000044,-0.902709960999971],[37.51629638700007,-0.907592772999976],[37.51531982500006,-0.911987303999979],[37.51770019500003,-0.915283202999944],[37.52087402300003,-0.91571044899996],[37.52691650400004,-0.913879394999981],[37.534118652000075,-0.912597655999946],[37.53491210900006,-0.904602050999927],[37.53369140600006,-0.901611327999944],[37.53289794900007,-0.896789550999927],[37.53747558600003,-0.888977050999927],[37.542114258000026,-0.887207030999946],[37.54449462900004,-0.883728026999961],[37.54772949200003,-0.882995604999962],[37.551879883000026,-0.882995604999962],[37.55767822300004,-0.87609863299997],[37.56091308600003,-0.875305175999927],[37.56231689500004,-0.877929687999938],[37.564514160000044,-0.880310058999953],[37.57507324200003,-0.876708983999947],[37.58270263700007,-0.877990722999925],[37.58673095700004,-0.878112792999957],[37.59069824200003,-0.869018554999968],[37.58728027300003,-0.865722655999946],[37.59088134800004,-0.861816405999946],[37.59509277300003,-0.860717772999976],[37.60150146500007,-0.861877440999933],[37.60589599600007,-0.854919433999953],[37.60968017600004,-0.855285644999981],[37.61572265600006,-0.85461425799997],[37.61712646500007,-0.851989745999958],[37.62048339800003,-0.851318358999947],[37.62371826200007,-0.851806640999939],[37.62689209000007,-0.850891112999932],[37.62890625000006,-0.839416503999928],[37.632873535000044,-0.838378905999946],[37.635681152000075,-0.839111327999944],[37.63769531200006,-0.842529296999942],[37.640502930000025,-0.845214843999941],[37.64611816400003,-0.842529296999942],[37.64892578100006,-0.844299315999933],[37.65209960900006,-0.844421386999954],[37.65551757800006,-0.846496581999929],[37.66052246100003,-0.846984862999932],[37.664672852000024,-0.845703124999943],[37.66668701200007,-0.84149169899996],[37.67108154300007,-0.835693358999947],[37.67108154300007,-0.83172607399996],[37.67272949200003,-0.827880858999947],[37.67547607400007,-0.825012206999929],[37.67852783200004,-0.824218749999943],[37.68109130900007,-0.82141113299997],[37.679870605000076,-0.817321776999961],[37.68231201200007,-0.807922362999932],[37.68127441400003,-0.80047607399996],[37.68127441400003,-0.796508788999972],[37.684509277000075,-0.794189452999944],[37.68908691400003,-0.795227050999927],[37.692504883000026,-0.79461669899996],[37.69451904300007,-0.790893554999968],[37.69812011700003,-0.788879394999981],[37.69891357400007,-0.785278319999975],[37.70172119100005,-0.783386229999962],[37.70629882800006,-0.781677245999958],[37.71087646500007,-0.780517577999944],[37.716308594000054,-0.779785155999946],[37.72149658200004,-0.779724120999958],[37.724670410000044,-0.780212401999961],[37.730529785000044,-0.775329589999956],[37.73327636700003,-0.774597167999957],[37.73931884800004,-0.77648925799997],[37.74390759400006,-0.779198134999945],[37.744007457000066,-0.779407847999948]]]}}]}